{"type":"FeatureCollection","features":[{"type":"Feature","properties":{"class":"motorway"},"geometry":{"type":"LineString","coordinates":[[8.315,49.551],[8.285,49.675],[8.189,49.699],[8.113,49.771]]}},{"type":"Feature","properties":{"class":"motorway"},"geometry":{"type":"LineString","coordinates":[[8.113,49.771],[7.853,49.953]]}},{"type":"Feature","properties":{"class":"motorway"},"geometry":{"type":"LineString","coordinates":[[2.392,48.889],[2.524,49.048]]}},{"type":"Feature","properties":{"class":"motorway"},"geometry":{"type":"LineString","coordinates":[[-3.568,43.4],[-3.781,43.325],[-3.894,43.319],[-3.979,43.349],[-4.038,43.348]]}},{"type":"Feature","properties":{"class":"motorway"},"geometry":{"type":"LineString","coordinates":[[7.33,47.783],[7.429,47.674],[7.521,47.639]]}},{"type":"Feature","properties":{"class":"motorway"},"geometry":{"type":"LineString","coordinates":[[9.559,47.455],[9.695,47.447]]}},{"type":"Feature","properties":{"class":"motorway"},"geometry":{"type":"LineString","coordinates":[[8.382,50.636],[8.453,50.614]]}},{"type":"Feature","properties":{"class":"motorway"},"geometry":{"type":"LineString","coordinates":[[1.85,48.553],[1.769,48.528]]}},{"type":"Feature","properties":{"class":"motorway"},"geometry":{"type":"LineString","coordinates":[[4.372,49.527],[4.288,49.466],[4.153,49.303],[4.071,49.268]]}},{"type":"Feature","properties":{"class":"motorway"},"geometry":{"type":"LineString","coordinates":[[6.229,50.856],[6.009,50.879],[5.841,50.967],[5.616,50.962],[5.374,51.005],[5.243,50.995]]}},{"type":"Feature","properties":{"class":"motorway"},"geometry":{"type":"MultiLineString","coordinates":[[[-0.175,51.269],[-0.069,51.251],[0.126,51.287],[0.125,51.3]],[[-0.327,51.301],[-0.242,51.255],[-0.175,51.269]]]}},{"type":"Feature","properties":{"class":"motorway"},"geometry":{"type":"LineString","coordinates":[[-3.536,50.666],[-3.481,50.707],[-3.46,50.786],[-3.392,50.844],[-3.342,50.936],[-3.118,50.978],[-3.044,51.011],[-2.991,51.1],[-3.003,51.135],[-2.987,51.185],[-2.912,51.273],[-2.894,51.342]]}},{"type":"Feature","properties":{"class":"motorway"},"geometry":{"type":"LineString","coordinates":[[-5.735,41.499],[-5.656,41.545],[-5.533,41.542],[-5.475,41.568],[-5.432,41.547],[-5.285,41.546],[-5.017,41.492]]}},{"type":"Feature","properties":{"class":"motorway"},"geometry":{"type":"LineString","coordinates":[[-4.837,41.188],[-4.884,41.238],[-4.899,41.303],[-4.961,41.336],[-4.981,41.477]]}},{"type":"Feature","properties":{"class":"motorway"},"geometry":{"type":"LineString","coordinates":[[-4.038,43.348],[-4.199,43.325],[-4.49,43.379]]}},{"type":"Feature","properties":{"class":"motorway"},"geometry":{"type":"LineString","coordinates":[[-4.771,43.413],[-5.003,43.435],[-5.281,43.49],[-5.417,43.482],[-5.479,43.518],[-5.704,43.555],[-5.805,43.554]]}},{"type":"Feature","properties":{"class":"motorway"},"geometry":{"type":"LineString","coordinates":[[-2.954,43.284],[-3.041,43.324],[-3.406,43.402],[-3.573,43.4]]}},{"type":"Feature","properties":{"class":"motorway"},"geometry":{"type":"LineString","coordinates":[[-3.586,41.194],[-3.593,41.243],[-3.645,41.324],[-3.647,41.408],[-3.72,41.507],[-3.698,41.604],[-3.715,41.677]]}},{"type":"Feature","properties":{"class":"motorway"},"geometry":{"type":"LineString","coordinates":[[-3.715,41.677],[-3.694,41.742],[-3.705,41.822],[-3.779,41.988],[-3.691,42.175],[-3.679,42.311]]}},{"type":"Feature","properties":{"class":"motorway"},"geometry":{"type":"LineString","coordinates":[[-1.203,43.701],[-1.225,43.675],[-1.345,43.664],[-1.406,43.628],[-1.446,43.549],[-1.454,43.468]]}},{"type":"Feature","properties":{"class":"motorway"},"geometry":{"type":"LineString","coordinates":[[-0.636,44.794],[-0.774,44.698],[-0.832,44.634],[-0.848,44.551],[-0.83,44.439]]}},{"type":"Feature","properties":{"class":"motorway"},"geometry":{"type":"LineString","coordinates":[[-0.502,44.895],[-0.503,44.837],[-0.53,44.797],[-0.638,44.788]]}},{"type":"Feature","properties":{"class":"motorway"},"geometry":{"type":"LineString","coordinates":[[-0.423,42.315],[-0.458,42.239],[-0.459,42.135],[-0.49,42.072],[-0.771,41.919],[-0.788,41.876],[-0.83,41.85],[-0.877,41.778],[-0.883,41.715],[-0.906,41.68]]}},{"type":"Feature","properties":{"class":"motorway"},"geometry":{"type":"LineString","coordinates":[[1.995,41.463],[2.111,41.497],[2.179,41.54],[2.258,41.55]]}},{"type":"Feature","properties":{"class":"motorway"},"geometry":{"type":"LineString","coordinates":[[1.494,41.207],[1.337,41.171]]}},{"type":"Feature","properties":{"class":"motorway"},"geometry":{"type":"LineString","coordinates":[[-0.558,44.784],[-0.539,44.729],[-0.32,44.565],[-0.241,44.539],[-0.092,44.528],[0.166,44.427],[0.255,44.352],[0.288,44.262],[0.324,44.219],[0.52,44.204],[0.615,44.128],[0.745,44.103],[0.869,44.042],[1.014,44.06],[1.147,44.044],[1.264,43.981],[1.324,43.922]]}},{"type":"Feature","properties":{"class":"motorway"},"geometry":{"type":"LineString","coordinates":[[2.748,41.842],[2.792,42.002],[2.897,42.055],[2.949,42.187],[2.946,42.333],[2.917,42.376]]}},{"type":"Feature","properties":{"class":"motorway"},"geometry":{"type":"LineString","coordinates":[[-1.802,43.322],[-2.238,43.269],[-2.34,43.283],[-2.377,43.264],[-2.396,43.199],[-2.514,43.178],[-2.589,43.185],[-2.742,43.232],[-2.825,43.284],[-2.945,43.308],[-2.938,43.256],[-2.844,43.205],[-2.892,43.164],[-2.906,43.052],[-2.863,42.993],[-2.863,42.946]]}},{"type":"Feature","properties":{"class":"motorway"},"geometry":{"type":"LineString","coordinates":[[-1.46,43.468],[-1.574,43.453],[-1.701,43.365],[-1.802,43.322]]}},{"type":"Feature","properties":{"class":"motorway"},"geometry":{"type":"LineString","coordinates":[[1.413,43.575],[1.329,43.513],[1.267,43.397],[1.031,43.246],[1.0,43.169],[0.946,43.13],[0.819,43.127],[0.73,43.102],[0.372,43.096]]}},{"type":"Feature","properties":{"class":"motorway"},"geometry":{"type":"LineString","coordinates":[[0.372,43.096],[0.224,43.14],[0.16,43.2],[-0.059,43.229],[-0.363,43.326]]}},{"type":"Feature","properties":{"class":"motorway"},"geometry":{"type":"LineString","coordinates":[[-0.363,43.326],[-0.593,43.42],[-0.729,43.432],[-0.818,43.479],[-0.927,43.505],[-1.188,43.532],[-1.35,43.461],[-1.454,43.474]]}},{"type":"Feature","properties":{"class":"motorway"},"geometry":{"type":"LineString","coordinates":[[2.989,43.149],[2.919,43.18],[2.802,43.188],[2.689,43.155],[2.273,43.205],[1.84,43.328],[1.623,43.455],[1.509,43.557]]}},{"type":"Feature","properties":{"class":"motorway"},"geometry":{"type":"LineString","coordinates":[[2.923,42.376],[2.834,42.509],[2.89,42.639],[2.92,42.821],[2.989,42.873],[2.974,42.974],[2.929,43.071],[2.982,43.109],[2.989,43.149]]}},{"type":"Feature","properties":{"class":"motorway"},"geometry":{"type":"LineString","coordinates":[[1.317,43.947],[1.321,43.863],[1.398,43.807],[1.413,43.743],[1.455,43.682]]}},{"type":"Feature","properties":{"class":"motorway"},"geometry":{"type":"LineString","coordinates":[[0.473,41.533],[0.631,41.531],[0.839,41.495],[0.943,41.417],[1.299,41.371],[1.343,41.294],[1.542,41.263]]}},{"type":"Feature","properties":{"class":"motorway"},"geometry":{"type":"LineString","coordinates":[[-2.859,42.953],[-2.875,42.929],[-2.865,42.828],[-2.896,42.705]]}},{"type":"Feature","properties":{"class":"motorway"},"geometry":{"type":"LineString","coordinates":[[2.004,41.46],[1.923,41.462],[1.782,41.402],[1.721,41.356],[1.713,41.322],[1.632,41.317],[1.494,41.207]]}},{"type":"Feature","properties":{"class":"motorway"},"geometry":{"type":"LineString","coordinates":[[-0.899,41.661],[-0.828,41.672],[-0.693,41.583],[-0.539,41.53],[-0.162,41.483],[0.069,41.507],[0.343,41.504],[0.486,41.539]]}},{"type":"Feature","properties":{"class":"motorway"},"geometry":{"type":"LineString","coordinates":[[-2.4,41.198],[-2.04,41.326],[-1.791,41.303],[-1.63,41.343]]}},{"type":"Feature","properties":{"class":"motorway"},"geometry":{"type":"LineString","coordinates":[[-1.63,41.343],[-1.558,41.422],[-1.516,41.432],[-1.455,41.483],[-1.346,41.51],[-1.23,41.57],[-1.162,41.555],[-1.085,41.621],[-0.899,41.661]]}},{"type":"Feature","properties":{"class":"motorway"},"geometry":{"type":"LineString","coordinates":[[-2.906,42.706],[-2.853,42.634],[-2.866,42.594],[-2.848,42.542],[-2.532,42.436]]}},{"type":"Feature","properties":{"class":"motorway"},"geometry":{"type":"LineString","coordinates":[[-2.532,42.436],[-2.321,42.45],[-2.285,42.441],[-2.245,42.4],[-2.111,42.397],[-1.974,42.32],[-1.896,42.224],[-1.756,42.136],[-1.698,42.062]]}},{"type":"Feature","properties":{"class":"motorway"},"geometry":{"type":"LineString","coordinates":[[-1.698,42.062],[-1.612,42.023],[-1.52,41.936],[-1.259,41.782],[-1.117,41.781],[-0.955,41.681]]}},{"type":"Feature","properties":{"class":"motorway"},"geometry":{"type":"LineString","coordinates":[[-1.272,41.194],[-1.244,41.213],[-1.198,41.353],[-1.157,41.419],[-0.925,41.607]]}},{"type":"Feature","properties":{"class":"motorway"},"geometry":{"type":"LineString","coordinates":[[-3.688,42.308],[-3.613,42.331],[-3.561,42.4],[-3.431,42.484],[-3.302,42.531],[-3.192,42.603],[-3.1,42.624],[-2.967,42.697],[-2.906,42.706]]}},{"type":"Feature","properties":{"class":"motorway"},"geometry":{"type":"LineString","coordinates":[[1.396,43.613],[1.414,43.663],[1.476,43.683],[1.515,43.642],[1.518,43.556],[1.42,43.562],[1.396,43.613]]}},{"type":"Feature","properties":{"class":"motorway"},"geometry":{"type":"LineString","coordinates":[[2.651,48.842],[2.413,48.848]]}},{"type":"Feature","properties":{"class":"motorway"},"geometry":{"type":"LineString","coordinates":[[2.425,48.848],[2.465,48.78],[2.452,48.749],[2.388,48.745],[2.311,48.711],[2.211,48.718],[2.147,48.746],[2.159,48.794],[2.249,48.845]]}},{"type":"Feature","properties":{"class":"motorway"},"geometry":{"type":"LineString","coordinates":[[0.216,48.03],[-0.261,48.003],[-0.81,48.103],[-0.93,48.075],[-1.026,48.082]]}},{"type":"Feature","properties":{"class":"motorway"},"geometry":{"type":"LineString","coordinates":[[-1.613,48.113],[-1.619,48.156],[-1.549,48.204],[-1.533,48.256],[-1.466,48.252],[-1.334,48.329],[-1.32,48.434],[-1.362,48.542],[-1.324,48.599],[-1.358,48.703]]}},{"type":"Feature","properties":{"class":"motorway"},"geometry":{"type":"LineString","coordinates":[[-1.364,48.689],[-1.28,48.762],[-1.207,48.859],[-1.082,48.922]]}},{"type":"Feature","properties":{"class":"motorway"},"geometry":{"type":"LineString","coordinates":[[-1.082,48.922],[-0.921,49.025],[-0.617,49.085],[-0.515,49.153],[-0.389,49.177]]}},{"type":"Feature","properties":{"class":"motorway"},"geometry":{"type":"LineString","coordinates":[[0.24,49.263],[-0.081,49.236],[-0.236,49.163]]}},{"type":"Feature","properties":{"class":"motorway"},"geometry":{"type":"LineString","coordinates":[[-0.249,49.165],[-0.348,49.141],[-0.394,49.166],[-0.335,49.224],[-0.248,49.173]]}},{"type":"Feature","properties":{"class":"motorway"},"geometry":{"type":"LineString","coordinates":[[4.89,44.967],[4.868,45.016],[4.877,45.119],[4.862,45.19]]}},{"type":"Feature","properties":{"class":"motorway"},"geometry":{"type":"LineString","coordinates":[[4.842,45.565],[4.806,45.374],[4.861,45.19]]}},{"type":"Feature","properties":{"class":"motorway"},"geometry":{"type":"LineString","coordinates":[[2.978,43.163],[3.117,43.223],[3.251,43.316],[3.647,43.49],[3.754,43.51],[4.031,43.67],[4.378,43.776]]}},{"type":"Feature","properties":{"class":"motorway"},"geometry":{"type":"LineString","coordinates":[[4.902,43.982],[4.855,44.096],[4.748,44.167],[4.71,44.232],[4.754,44.306],[4.744,44.429],[4.799,44.547],[4.802,44.761],[4.883,44.892],[4.884,44.973]]}},{"type":"Feature","properties":{"class":"motorway"},"geometry":{"type":"LineString","coordinates":[[-1.532,47.159],[-1.429,47.068],[-1.324,46.906],[-1.174,46.771],[-1.142,46.628],[-1.073,46.548],[-1.084,46.536]]}},{"type":"Feature","properties":{"class":"motorway"},"geometry":{"type":"LineString","coordinates":[[-0.668,45.779],[-0.603,45.607],[-0.604,45.435],[-0.452,45.076],[-0.452,45.01],[-0.507,44.88]]}},{"type":"Feature","properties":{"class":"motorway"},"geometry":{"type":"LineString","coordinates":[[5.117,43.625],[5.057,43.741],[4.943,43.88],[4.896,43.994]]}},{"type":"Feature","properties":{"class":"motorway"},"geometry":{"type":"LineString","coordinates":[[6.026,45.489],[6.211,45.558],[6.264,45.555],[6.276,45.511],[6.261,45.387],[6.298,45.326],[6.351,45.286],[6.455,45.258],[6.546,45.193],[6.608,45.179]]}},{"type":"Feature","properties":{"class":"motorway"},"geometry":{"type":"LineString","coordinates":[[6.023,45.47],[6.001,45.529],[5.909,45.613]]}},{"type":"Feature","properties":{"class":"motorway"},"geometry":{"type":"LineString","coordinates":[[7.684,44.975],[7.535,45.057]]}},{"type":"Feature","properties":{"class":"motorway"},"geometry":{"type":"LineString","coordinates":[[7.113,45.144],[7.221,45.148]]}},{"type":"Feature","properties":{"class":"motorway"},"geometry":{"type":"LineString","coordinates":[[4.889,45.703],[4.926,45.704],[5.212,45.592],[5.378,45.604],[5.498,45.585],[5.593,45.602],[5.773,45.569],[5.86,45.617],[5.909,45.616]]}},{"type":"Feature","properties":{"class":"motorway"},"geometry":{"type":"LineString","coordinates":[[9.614,47.267],[9.805,47.164]]}},{"type":"Feature","properties":{"class":"motorway"},"geometry":{"type":"LineString","coordinates":[[1.776,50.202],[1.771,50.242],[1.694,50.377],[1.663,50.656],[1.626,50.738],[1.71,50.838],[1.845,50.923]]}},{"type":"Feature","properties":{"class":"motorway"},"geometry":{"type":"LineString","coordinates":[[4.794,49.746],[4.693,49.723],[4.372,49.527]]}},{"type":"Feature","properties":{"class":"motorway"},"geometry":{"type":"LineString","coordinates":[[4.794,49.746],[4.957,49.695],[4.997,49.702]]}},{"type":"Feature","properties":{"class":"motorway"},"geometry":{"type":"LineString","coordinates":[[2.918,46.36],[3.025,46.33],[3.101,46.263],[3.139,46.123],[3.122,45.955]]}},{"type":"Feature","properties":{"class":"motorway"},"geometry":{"type":"LineString","coordinates":[[3.116,45.959],[3.157,45.897],[3.175,45.827]]}},{"type":"Feature","properties":{"class":"motorway"},"geometry":{"type":"LineString","coordinates":[[2.046,47.279],[2.162,47.177],[2.239,47.076],[2.361,47.043],[2.389,47.017],[2.432,46.878],[2.419,46.776],[2.482,46.708],[2.538,46.577],[2.648,46.497],[2.698,46.385],[2.736,46.362],[2.918,46.36]]}},{"type":"Feature","properties":{"class":"motorway"},"geometry":{"type":"LineString","coordinates":[[3.163,45.803],[3.327,45.848],[3.5,45.834],[3.63,45.872],[3.688,45.867],[3.754,45.83],[3.949,45.87],[4.065,45.853],[4.138,45.796]]}},{"type":"Feature","properties":{"class":"motorway"},"geometry":{"type":"LineString","coordinates":[[4.138,45.796],[4.189,45.623],[4.307,45.498],[4.384,45.461],[4.498,45.468],[4.854,45.585]]}},{"type":"Feature","properties":{"class":"motorway"},"geometry":{"type":"LineString","coordinates":[[4.845,45.563],[4.889,45.714]]}},{"type":"Feature","properties":{"class":"motorway"},"geometry":{"type":"LineString","coordinates":[[2.2,48.721],[2.104,48.659],[1.85,48.553]]}},{"type":"Feature","properties":{"class":"motorway"},"geometry":{"type":"LineString","coordinates":[[1.922,48.596],[1.908,48.496],[1.844,48.301],[1.859,48.083],[1.831,47.918]]}},{"type":"Feature","properties":{"class":"motorway"},"geometry":{"type":"LineString","coordinates":[[1.819,47.934],[1.85,47.863],[1.865,47.755],[1.907,47.679],[2.025,47.598],[2.021,47.508],[2.052,47.345],[2.04,47.279]]}},{"type":"Feature","properties":{"class":"motorway"},"geometry":{"type":"LineString","coordinates":[[2.052,47.273],[2.014,47.187],[1.83,47.067],[1.774,47.005],[1.682,46.842],[1.584,46.785],[1.592,46.701],[1.541,46.612],[1.483,46.562],[1.501,46.413],[1.393,46.248],[1.317,46.079],[1.313,45.987],[1.255,45.887],[1.267,45.834]]}},{"type":"Feature","properties":{"class":"motorway"},"geometry":{"type":"LineString","coordinates":[[1.769,48.528],[1.612,48.51],[1.434,48.361],[0.898,48.217],[0.445,48.055],[0.334,48.028],[0.216,48.03]]}},{"type":"Feature","properties":{"class":"motorway"},"geometry":{"type":"LineString","coordinates":[[4.889,45.709],[4.809,45.793],[4.707,45.962],[4.716,46.039],[4.8,46.287]]}},{"type":"Feature","properties":{"class":"motorway"},"geometry":{"type":"LineString","coordinates":[[6.127,49.584],[6.088,49.404],[6.103,49.371],[6.18,49.331],[6.187,49.238],[6.168,49.196]]}},{"type":"Feature","properties":{"class":"motorway"},"geometry":{"type":"LineString","coordinates":[[4.488,50.912],[4.405,50.916],[4.284,50.881]]}},{"type":"Feature","properties":{"class":"motorway"},"geometry":{"type":"LineString","coordinates":[[4.442,51.239],[4.472,50.911]]}},{"type":"Feature","properties":{"class":"motorway"},"geometry":{"type":"LineString","coordinates":[[1.845,50.923],[2.405,51.006],[2.535,51.06],[2.66,51.062],[2.924,51.165]]}},{"type":"Feature","properties":{"class":"motorway"},"geometry":{"type":"LineString","coordinates":[[2.924,51.165],[3.054,51.189],[3.784,50.977]]}},{"type":"Feature","properties":{"class":"motorway"},"geometry":{"type":"LineString","coordinates":[[3.781,50.976],[4.164,50.881],[4.293,50.883]]}},{"type":"Feature","properties":{"class":"motorway"},"geometry":{"type":"LineString","coordinates":[[3.175,48.041],[2.822,48.207]]}},{"type":"Feature","properties":{"class":"motorway"},"geometry":{"type":"LineString","coordinates":[[2.822,48.207],[2.75,48.272],[2.54,48.375],[2.467,48.538],[2.375,48.615]]}},{"type":"Feature","properties":{"class":"motorway"},"geometry":{"type":"LineString","coordinates":[[2.53,49.035],[2.576,49.148],[2.71,49.321],[2.712,49.573],[2.877,50.045]]}},{"type":"Feature","properties":{"class":"motorway"},"geometry":{"type":"LineString","coordinates":[[2.877,50.045],[2.854,50.251],[2.887,50.327]]}},{"type":"Feature","properties":{"class":"motorway"},"geometry":{"type":"LineString","coordinates":[[3.962,49.268],[3.781,49.212],[3.733,49.161],[3.671,49.135],[3.427,49.106],[3.328,49.058],[3.18,49.031],[3.012,48.931],[2.898,48.908],[2.803,48.838],[2.651,48.842]]}},{"type":"Feature","properties":{"class":"motorway"},"geometry":{"type":"LineString","coordinates":[[4.209,48.201],[4.186,48.233],[4.159,48.379],[4.189,48.661],[4.233,48.73]]}},{"type":"Feature","properties":{"class":"motorway"},"geometry":{"type":"LineString","coordinates":[[4.233,48.725],[4.276,48.858],[4.298,49.059]]}},{"type":"Feature","properties":{"class":"motorway"},"geometry":{"type":"LineString","coordinates":[[4.024,49.292],[3.951,49.381],[3.874,49.532],[3.716,49.586]]}},{"type":"Feature","properties":{"class":"motorway"},"geometry":{"type":"LineString","coordinates":[[3.716,49.586],[3.617,49.649],[3.485,49.696],[3.282,49.839],[3.116,50.176]]}},{"type":"Feature","properties":{"class":"motorway"},"geometry":{"type":"LineString","coordinates":[[3.122,50.17],[3.079,50.218],[2.923,50.303]]}},{"type":"Feature","properties":{"class":"motorway"},"geometry":{"type":"LineString","coordinates":[[2.923,50.303],[2.741,50.438],[2.7,50.5],[2.456,50.54],[2.301,50.627],[1.939,50.935]]}},{"type":"Feature","properties":{"class":"motorway"},"geometry":{"type":"LineString","coordinates":[[4.077,49.256],[4.09,49.225],[4.221,49.155],[4.304,49.045]]}},{"type":"Feature","properties":{"class":"motorway"},"geometry":{"type":"LineString","coordinates":[[5.216,47.908],[5.168,47.96],[4.995,48.063],[4.896,48.073],[4.74,48.135],[4.537,48.174],[4.285,48.183],[4.192,48.211]]}},{"type":"Feature","properties":{"class":"motorway"},"geometry":{"type":"LineString","coordinates":[[1.031,49.352],[1.089,49.258],[1.419,49.072],[1.738,48.939],[1.91,48.945],[1.949,48.923],[1.972,48.88],[2.057,48.83]]}},{"type":"Feature","properties":{"class":"motorway"},"geometry":{"type":"LineString","coordinates":[[0.227,49.264],[0.242,49.291],[0.187,49.299],[0.179,49.317],[0.234,49.364],[0.237,49.457],[0.292,49.522],[0.369,49.535],[0.613,49.635],[0.81,49.667],[1.173,49.635],[1.276,49.657]]}},{"type":"Feature","properties":{"class":"motorway"},"geometry":{"type":"LineString","coordinates":[[2.256,48.864],[2.195,48.868],[2.129,48.834],[2.054,48.834]]}},{"type":"Feature","properties":{"class":"motorway"},"geometry":{"type":"LineString","coordinates":[[1.28,49.662],[1.262,49.562],[1.104,49.47],[1.022,49.345]]}},{"type":"Feature","properties":{"class":"motorway"},"geometry":{"type":"LineString","coordinates":[[4.474,50.809],[4.579,50.713],[4.789,50.621],[4.869,50.511],[4.981,50.419],[5.074,50.15],[5.202,50.047],[5.229,49.939],[5.266,49.913]]}},{"type":"Feature","properties":{"class":"motorway"},"geometry":{"type":"LineString","coordinates":[[5.495,49.861],[5.579,49.736],[5.801,49.665]]}},{"type":"Feature","properties":{"class":"motorway"},"geometry":{"type":"LineString","coordinates":[[5.801,49.665],[5.977,49.629],[6.076,49.553],[6.117,49.542]]}},{"type":"Feature","properties":{"class":"motorway"},"geometry":{"type":"LineString","coordinates":[[4.469,51.3],[4.44,51.251]]}},{"type":"Feature","properties":{"class":"motorway"},"geometry":{"type":"LineString","coordinates":[[7.972,48.575],[7.796,48.35],[7.754,48.239],[7.756,48.191],[7.815,48.073],[7.787,48.011]]}},{"type":"Feature","properties":{"class":"motorway"},"geometry":{"type":"LineString","coordinates":[[7.79,48.016],[7.637,47.942],[7.562,47.816],[7.551,47.737],[7.6,47.626]]}},{"type":"Feature","properties":{"class":"motorway"},"geometry":{"type":"LineString","coordinates":[[4.567,47.24],[4.524,47.261],[4.5,47.316],[4.311,47.42],[4.005,47.517],[3.913,47.651],[3.752,47.725],[3.7,47.786],[3.546,47.876],[3.314,47.937],[3.175,48.041]]}},{"type":"Feature","properties":{"class":"motorway"},"geometry":{"type":"LineString","coordinates":[[7.329,47.762],[6.945,47.668],[6.894,47.639],[6.868,47.59]]}},{"type":"Feature","properties":{"class":"motorway"},"geometry":{"type":"LineString","coordinates":[[6.868,47.59],[6.843,47.493],[6.768,47.448],[6.383,47.404],[6.296,47.358],[6.01,47.301],[5.809,47.191],[5.383,47.13]]}},{"type":"Feature","properties":{"class":"motorway"},"geometry":{"type":"LineString","coordinates":[[5.383,47.13],[5.229,47.059],[5.144,47.041],[4.902,47.07]]}},{"type":"Feature","properties":{"class":"motorway"},"geometry":{"type":"LineString","coordinates":[[5.905,48.663],[5.888,48.633],[5.938,48.555],[5.939,48.523]]}},{"type":"Feature","properties":{"class":"motorway"},"geometry":{"type":"LineString","coordinates":[[5.94,48.527],[5.883,48.45],[5.885,48.274],[5.853,48.235]]}},{"type":"Feature","properties":{"class":"motorway"},"geometry":{"type":"LineString","coordinates":[[5.853,48.235],[5.706,48.18],[5.653,48.101],[5.555,48.046],[5.516,47.987],[5.349,47.975],[5.217,47.928]]}},{"type":"Feature","properties":{"class":"motorway"},"geometry":{"type":"LineString","coordinates":[[6.168,49.204],[6.176,49.144],[6.113,49.049],[6.084,48.918],[6.09,48.866],[6.15,48.772],[6.14,48.722],[6.104,48.699]]}},{"type":"Feature","properties":{"class":"motorway"},"geometry":{"type":"LineString","coordinates":[[4.806,46.281],[4.823,46.363],[4.902,46.533],[4.828,46.719],[4.828,46.946],[4.857,47.007],[4.99,47.162],[5.022,47.25],[5.149,47.308]]}},{"type":"Feature","properties":{"class":"motorway"},"geometry":{"type":"LineString","coordinates":[[5.149,47.308],[5.186,47.378],[5.225,47.588],[5.194,47.718],[5.255,47.843],[5.251,47.876],[5.212,47.918]]}},{"type":"Feature","properties":{"class":"motorway"},"geometry":{"type":"LineString","coordinates":[[5.884,48.655],[5.996,48.694],[6.115,48.7]]}},{"type":"Feature","properties":{"class":"motorway"},"geometry":{"type":"LineString","coordinates":[[8.215,47.451],[8.138,47.468],[8.012,47.552],[7.825,47.565],[7.669,47.638],[7.599,47.629]]}},{"type":"Feature","properties":{"class":"motorway"},"geometry":{"type":"LineString","coordinates":[[8.215,47.451],[8.154,47.427],[8.124,47.389],[7.91,47.313]]}},{"type":"Feature","properties":{"class":"motorway"},"geometry":{"type":"LineString","coordinates":[[5.496,49.865],[5.34,49.902]]}},{"type":"Feature","properties":{"class":"motorway"},"geometry":{"type":"LineString","coordinates":[[8.402,48.987],[8.334,48.907],[8.212,48.853],[8.102,48.707],[7.96,48.563]]}},{"type":"Feature","properties":{"class":"motorway"},"geometry":{"type":"LineString","coordinates":[[8.47,49.362],[8.353,49.429],[8.322,49.555]]}},{"type":"Feature","properties":{"class":"motorway"},"geometry":{"type":"LineString","coordinates":[[7.846,50.982],[7.921,50.9],[8.11,50.82],[8.156,50.774],[8.253,50.745],[8.312,50.659],[8.402,50.624]]}},{"type":"Feature","properties":{"class":"motorway"},"geometry":{"type":"LineString","coordinates":[[6.93,51.016],[6.822,50.969],[6.801,50.92]]}},{"type":"Feature","properties":{"class":"motorway"},"geometry":{"type":"LineString","coordinates":[[6.995,51.024],[6.921,51.015]]}},{"type":"Feature","properties":{"class":"motorway"},"geometry":{"type":"LineString","coordinates":[[8.466,50.007],[8.481,49.92],[8.613,49.851]]}},{"type":"Feature","properties":{"class":"motorway"},"geometry":{"type":"LineString","coordinates":[[5.815,50.964],[5.863,51.124],[5.839,51.183],[5.765,51.255],[5.65,51.282],[5.582,51.338]]}},{"type":"Feature","properties":{"class":"motorway"},"geometry":{"type":"LineString","coordinates":[[6.992,51.028],[7.086,51.056],[7.221,51.171],[7.245,51.219],[7.238,51.296],[7.261,51.423]]}},{"type":"Feature","properties":{"class":"motorway"},"geometry":{"type":"LineString","coordinates":[[7.442,50.344],[7.297,50.307],[7.188,50.221],[7.066,50.239],[6.951,50.194]]}},{"type":"Feature","properties":{"class":"motorway"},"geometry":{"type":"LineString","coordinates":[[6.954,50.191],[6.892,50.171],[6.858,50.125],[6.93,50.025],[6.923,49.986],[6.848,49.903],[6.738,49.824],[6.724,49.78]]}},{"type":"Feature","properties":{"class":"motorway"},"geometry":{"type":"LineString","coordinates":[[6.398,50.829],[6.462,50.835],[6.567,50.897],[6.683,50.892],[6.807,50.92]]}},{"type":"Feature","properties":{"class":"motorway"},"geometry":{"type":"LineString","coordinates":[[6.118,49.568],[6.19,49.647],[6.392,49.673],[6.591,49.771],[6.706,49.786]]}},{"type":"Feature","properties":{"class":"motorway"},"geometry":{"type":"LineString","coordinates":[[6.658,50.896],[6.738,50.82],[6.905,50.753],[6.932,50.653],[7.037,50.588]]}},{"type":"Feature","properties":{"class":"motorway"},"geometry":{"type":"LineString","coordinates":[[7.037,50.588],[7.18,50.528],[7.256,50.399],[7.413,50.379],[7.532,50.214],[7.623,50.2],[7.621,50.101],[7.69,50.006]]}},{"type":"Feature","properties":{"class":"motorway"},"geometry":{"type":"LineString","coordinates":[[7.525,51.332],[7.638,51.212],[7.696,51.088],[7.822,51.038],[7.846,50.982]]}},{"type":"Feature","properties":{"class":"motorway"},"geometry":{"type":"LineString","coordinates":[[7.69,50.006],[7.853,49.953]]}},{"type":"Feature","properties":{"class":"motorway"},"geometry":{"type":"LineString","coordinates":[[9.051,45.519],[9.054,45.422],[9.141,45.385],[9.25,45.372],[9.267,45.471],[9.245,45.519],[9.353,45.574]]}},{"type":"Feature","properties":{"class":"motorway"},"geometry":{"type":"LineString","coordinates":[[8.834,50.627],[8.746,50.521],[8.699,50.429],[8.664,50.251],[8.592,50.169],[8.577,50.116]]}},{"type":"Feature","properties":{"class":"motorway"},"geometry":{"type":"LineString","coordinates":[[8.836,50.61],[8.963,50.655],[9.113,50.742],[9.312,50.763],[9.584,50.834]]}},{"type":"Feature","properties":{"class":"motorway"},"geometry":{"type":"LineString","coordinates":[[8.613,49.851],[8.632,49.831],[8.604,49.699],[8.637,49.581],[8.639,49.375],[8.587,49.195],[8.398,48.996]]}},{"type":"Feature","properties":{"class":"motorway"},"geometry":{"type":"LineString","coordinates":[[9.262,49.163],[9.038,49.234],[8.861,49.244],[8.75,49.281],[8.654,49.26],[8.566,49.334],[8.47,49.362]]}},{"type":"Feature","properties":{"class":"motorway"},"geometry":{"type":"LineString","coordinates":[[9.83,49.181],[9.548,49.214],[9.262,49.163]]}},{"type":"Feature","properties":{"class":"motorway"},"geometry":{"type":"LineString","coordinates":[[8.506,50.616],[8.572,50.546],[8.712,50.493]]}},{"type":"Feature","properties":{"class":"motorway"},"geometry":{"type":"LineString","coordinates":[[9.628,51.371],[9.5,51.256]]}},{"type":"Feature","properties":{"class":"motorway"},"geometry":{"type":"LineString","coordinates":[[9.505,51.259],[9.468,51.171],[9.477,51.005],[9.582,50.84]]}},{"type":"Feature","properties":{"class":"motorway"},"geometry":{"type":"LineString","coordinates":[[9.568,50.84],[9.679,50.677],[9.716,50.464],[9.77,50.346],[9.801,50.318]]}},{"type":"Feature","properties":{"class":"motorway"},"geometry":{"type":"LineString","coordinates":[[8.398,48.996],[8.614,48.927],[8.789,48.93],[8.826,48.858],[8.959,48.831],[9.127,48.729],[9.297,48.702],[9.463,48.635],[9.599,48.625],[9.64,48.604],[9.657,48.551],[9.876,48.505]]}},{"type":"Feature","properties":{"class":"motorway"},"geometry":{"type":"LineString","coordinates":[[9.562,47.453],[9.491,47.493],[9.39,47.44],[9.253,47.423],[9.129,47.475],[8.986,47.467],[8.859,47.526],[8.726,47.542],[8.68,47.521],[8.711,47.47],[8.681,47.426],[8.543,47.389],[8.476,47.391],[8.312,47.45],[8.215,47.451]]}},{"type":"Feature","properties":{"class":"motorway"},"geometry":{"type":"LineString","coordinates":[[9.802,47.701],[9.742,47.638],[9.734,47.6]]}},{"type":"Feature","properties":{"class":"motorway"},"geometry":{"type":"LineString","coordinates":[[9.737,47.605],[9.769,47.568],[9.772,47.525],[9.691,47.449]]}},{"type":"Feature","properties":{"class":"motorway"},"geometry":{"type":"LineString","coordinates":[[9.584,50.834],[9.738,50.857],[9.873,50.914]]}},{"type":"Feature","properties":{"class":"motorway"},"geometry":{"type":"LineString","coordinates":[[9.822,45.013],[9.658,45.139],[9.26,45.379]]}},{"type":"Feature","properties":{"class":"motorway"},"geometry":{"type":"LineString","coordinates":[[8.434,44.298],[8.304,44.337],[8.158,44.349],[8.097,44.383],[8.004,44.373],[7.859,44.412],[7.759,44.582],[7.776,44.653],[7.756,44.73],[7.76,44.856],[7.739,44.918],[7.684,44.975]]}},{"type":"Feature","properties":{"class":"motorway"},"geometry":{"type":"LineString","coordinates":[[8.926,44.457],[8.995,44.421],[9.332,44.335],[9.528,44.243],[9.801,44.209]]}},{"type":"Feature","properties":{"class":"motorway"},"geometry":{"type":"LineString","coordinates":[[8.729,44.442],[8.603,44.4],[8.451,44.311],[8.39,44.247],[8.255,44.182],[8.162,44.08],[8.11,43.982],[8.06,43.939],[7.64,43.818]]}},{"type":"Feature","properties":{"class":"motorway"},"geometry":{"type":"LineString","coordinates":[[9.102,45.394],[9.024,45.23],[9.0,45.122],[8.853,44.928],[8.796,44.813],[8.809,44.767],[8.972,44.614],[8.926,44.457]]}},{"type":"Feature","properties":{"class":"motorway"},"geometry":{"type":"LineString","coordinates":[[8.927,44.452],[8.729,44.434]]}},{"type":"Feature","properties":{"class":"motorway"},"geometry":{"type":"LineString","coordinates":[[8.61,46.939],[8.438,46.981],[8.322,46.973],[8.295,47.014]]}},{"type":"Feature","properties":{"class":"motorway"},"geometry":{"type":"LineString","coordinates":[[7.899,47.31],[7.977,47.211],[8.039,47.185],[8.14,47.189],[8.267,47.112],[8.291,47.066]]}},{"type":"Feature","properties":{"class":"motorway"},"geometry":{"type":"LineString","coordinates":[[8.594,46.566],[8.737,46.526],[8.839,46.448],[8.878,46.381],[8.986,46.299],[9.012,46.214]]}},{"type":"Feature","properties":{"class":"motorway"},"geometry":{"type":"LineString","coordinates":[[9.012,46.222],[8.94,46.136],[8.927,46.026],[8.953,45.952],[8.998,45.905],[8.991,45.88],[8.963,45.87],[9.033,45.845],[9.047,45.801],[8.999,45.654],[9.041,45.516]]}},{"type":"Feature","properties":{"class":"motorway"},"geometry":{"type":"LineString","coordinates":[[6.709,45.078],[6.783,45.054],[6.847,45.069],[6.914,45.149],[6.966,45.172],[7.113,45.144]]}},{"type":"Feature","properties":{"class":"motorway"},"geometry":{"type":"LineString","coordinates":[[7.221,45.148],[7.359,45.135],[7.439,45.081],[7.535,45.057]]}},{"type":"Feature","properties":{"class":"motorway"},"geometry":{"type":"LineString","coordinates":[[9.044,45.518],[8.74,45.468],[8.551,45.482],[8.235,45.456],[8.152,45.425],[7.926,45.231],[7.722,45.164]]}},{"type":"Feature","properties":{"class":"motorway"},"geometry":{"type":"LineString","coordinates":[[7.535,45.057],[7.557,45.091],[7.725,45.164]]}},{"type":"Feature","properties":{"class":"motorway"},"geometry":{"type":"LineString","coordinates":[[7.642,43.819],[7.456,43.814],[7.354,43.755],[7.199,43.717],[6.91,43.55],[6.768,43.542],[6.689,43.464],[6.521,43.462],[6.377,43.399],[6.252,43.392],[5.587,43.477],[5.465,43.511],[5.33,43.496],[5.133,43.625],[4.968,43.648],[4.754,43.643],[4.479,43.725],[4.37,43.778]]}},{"type":"Feature","properties":{"class":"motorway"},"geometry":{"type":"LineString","coordinates":[[9.734,47.482],[9.697,47.38],[9.624,47.291],[9.62,47.262]]}},{"type":"Feature","properties":{"class":"motorway"},"geometry":{"type":"LineString","coordinates":[[6.608,45.179],[6.685,45.155],[6.709,45.078]]}},{"type":"Feature","properties":{"class":"motorway"},"geometry":{"type":"LineString","coordinates":[[-0.528,45.967],[-0.651,45.831],[-0.668,45.779]]}},{"type":"Feature","properties":{"class":"motorway"},"geometry":{"type":"LineString","coordinates":[[2.409,48.849],[2.392,48.889],[2.315,48.9],[2.279,48.887],[2.239,48.836]]}},{"type":"Feature","properties":{"class":"trunk"},"geometry":{"type":"LineString","coordinates":[[7.521,47.638],[7.604,47.636]]}},{"type":"Feature","properties":{"class":"motorway"},"geometry":{"type":"LineString","coordinates":[[-5.829,41.54],[-5.727,41.495]]}},{"type":"Feature","properties":{"class":"trunk"},"geometry":{"type":"LineString","coordinates":[[2.121,48.667],[2.188,48.629],[2.389,48.615]]}},{"type":"Feature","properties":{"class":"trunk"},"geometry":{"type":"LineString","coordinates":[[-0.542,45.951],[-0.626,46.032],[-0.777,46.124],[-0.971,46.306],[-1.108,46.469],[-1.115,46.507],[-1.078,46.532]]}},{"type":"Feature","properties":{"class":"trunk"},"geometry":{"type":"LineString","coordinates":[[-4.49,43.379],[-4.771,43.413]]}},{"type":"Feature","properties":{"class":"trunk"},"geometry":{"type":"LineString","coordinates":[[-1.528,47.162],[-1.574,47.162],[-1.654,47.204],[-1.621,47.25],[-1.654,47.426],[-1.628,47.598],[-1.711,47.741],[-1.684,47.95],[-1.712,48.043],[-1.699,48.079]]}},{"type":"Feature","properties":{"class":"trunk"},"geometry":{"type":"LineString","coordinates":[[-0.83,44.439],[-0.86,44.321],[-0.967,44.158],[-1.007,44.032],[-1.133,43.878],[-1.194,43.772],[-1.204,43.679]]}},{"type":"Feature","properties":{"class":"trunk"},"geometry":{"type":"LineString","coordinates":[[-1.026,48.082],[-1.232,48.058],[-1.602,48.1],[-1.713,48.075]]}},{"type":"Feature","properties":{"class":"trunk"},"geometry":{"type":"LineString","coordinates":[[0.987,51.308],[1.121,51.265],[1.186,51.2],[1.33,51.152]]}},{"type":"Feature","properties":{"class":"trunk"},"geometry":{"type":"LineString","coordinates":[[-5.552,50.131],[-5.525,50.157],[-5.414,50.16],[-5.36,50.212],[-5.259,50.234],[-4.919,50.406],[-4.712,50.452],[-4.674,50.499]]}},{"type":"Feature","properties":{"class":"trunk"},"geometry":{"type":"LineString","coordinates":[[-4.674,50.499],[-4.597,50.56],[-4.03,50.741],[-3.622,50.719],[-3.525,50.678]]}},{"type":"Feature","properties":{"class":"trunk"},"geometry":{"type":"LineString","coordinates":[[-0.612,43.187],[-0.613,42.962],[-0.542,42.879],[-0.557,42.821],[-0.524,42.765],[-0.562,42.667],[-0.56,42.561],[-0.347,42.501],[-0.407,42.449],[-0.409,42.405],[-0.382,42.355],[-0.425,42.311]]}},{"type":"Feature","properties":{"class":"trunk"},"geometry":{"type":"LineString","coordinates":[[-0.364,43.311],[-0.387,43.213],[-0.439,43.149],[-0.606,43.179]]}},{"type":"Feature","properties":{"class":"trunk"},"geometry":{"type":"LineString","coordinates":[[8.293,47.07],[8.301,47.012]]}},{"type":"Feature","properties":{"class":"motorway"},"geometry":{"type":"LineString","coordinates":[[4.504,50.845],[4.622,50.863]]}},{"type":"Feature","properties":{"class":"trunk"},"geometry":{"type":"LineString","coordinates":[[8.453,50.614],[8.51,50.602]]}},{"type":"Feature","properties":{"class":"trunk"},"geometry":{"type":"LineString","coordinates":[[4.997,49.686],[5.002,49.719],[5.076,49.798],[5.101,49.86],[5.241,49.872],[5.278,49.913]]}},{"type":"Feature","properties":{"class":"trunk"},"geometry":{"type":"LineString","coordinates":[[4.075,49.241],[4.072,49.275],[4.029,49.289],[3.982,49.287],[3.961,49.258]]}},{"type":"Feature","properties":{"class":"trunk"},"geometry":{"type":"LineString","coordinates":[[5.259,49.908],[5.34,49.902]]}},{"type":"Feature","properties":{"class":"motorway"},"geometry":{"type":"LineString","coordinates":[[4.484,50.917],[4.516,50.878],[4.474,50.809]]}},{"type":"Feature","properties":{"class":"motorway"},"geometry":{"type":"LineString","coordinates":[[6.229,50.856],[6.404,50.827]]}},{"type":"Feature","properties":{"class":"trunk"},"geometry":{"type":"LineString","coordinates":[[8.575,50.121],[8.498,50.117],[8.407,50.076]]}},{"type":"Feature","properties":{"class":"trunk"},"geometry":{"type":"LineString","coordinates":[[8.41,50.073],[8.397,50.053],[8.466,50.007]]}},{"type":"Feature","properties":{"class":"trunk"},"geometry":{"type":"LineString","coordinates":[[-5.018,41.493],[-4.996,41.507],[-4.982,41.474]]}},{"type":"Feature","properties":{"class":"trunk"},"geometry":{"type":"LineString","coordinates":[[-1.713,48.075],[-1.76,48.073],[-1.783,48.111]]}},{"type":"Feature","properties":{"class":"motorway"},"geometry":{"type":"LineString","coordinates":[[-0.578,44.893],[-0.507,44.88]]}},{"type":"Feature","properties":{"class":"motorway"},"geometry":{"type":"LineString","coordinates":[[-0.626,44.795],[-0.672,44.85],[-0.608,44.888]]}},{"type":"Feature","properties":{"class":"motorway"},"geometry":{"type":"LineString","coordinates":[[3.961,49.258],[3.965,49.236],[4.046,49.206],[4.075,49.241]]}},{"type":"Feature","properties":{"class":"motorway"},"geometry":{"type":"LineString","coordinates":[[-0.715,51.341],[-1.195,51.207],[-1.35,51.014],[-1.379,50.945]]}},{"type":"Feature","properties":{"class":"trunk"},"geometry":{"type":"LineString","coordinates":[[-0.152,51.3],[-0.152,51.263]]}},{"type":"Feature","properties":{"class":"trunk"},"geometry":{"type":"LineString","coordinates":[[-0.152,51.263],[-0.136,51.122],[-0.162,51.083],[-0.201,51.078]]}},{"type":"Feature","properties":{"class":"motorway"},"geometry":{"type":"LineString","coordinates":[[-1.002,50.857],[-1.268,50.864],[-1.344,50.937],[-1.455,50.968]]}},{"type":"Feature","properties":{"class":"motorway"},"geometry":{"type":"LineString","coordinates":[[-1.455,50.968],[-1.61,50.95]]}},{"type":"Feature","properties":{"class":"motorway"},"geometry":{"type":"MultiLineString","coordinates":[[[-5.795,43.547],[-5.811,43.38]],[[-5.821,43.273],[-5.77,43.23],[-5.803,43.163]],[[-5.843,42.804],[-5.762,42.758],[-5.78,42.697],[-5.738,42.66],[-5.729,42.606],[-5.558,42.515]]]}},{"type":"Feature","properties":{"class":"motorway"},"geometry":{"type":"LineString","coordinates":[[-5.353,41.164],[-5.018,41.493]]}},{"type":"Feature","properties":{"class":"motorway"},"geometry":{"type":"LineString","coordinates":[[-3.573,43.4],[-3.648,43.415],[-3.766,43.403],[-3.825,43.431],[-3.9,43.431],[-3.995,43.411],[-4.035,43.385],[-4.058,43.342]]}},{"type":"Feature","properties":{"class":"motorway"},"geometry":{"type":"LineString","coordinates":[[-4.98,41.499],[-4.938,41.508],[-4.686,41.725],[-4.445,41.993],[-4.247,42.044],[-4.085,42.139],[-3.946,42.265],[-3.688,42.308]]}},{"type":"Feature","properties":{"class":"motorway"},"geometry":{"type":"LineString","coordinates":[[1.647,43.113],[1.631,43.196],[1.658,43.294],[1.609,43.376],[1.64,43.438]]}},{"type":"Feature","properties":{"class":"motorway"},"geometry":{"type":"LineString","coordinates":[[2.208,41.432],[2.082,41.533],[1.951,41.558],[1.898,41.602],[1.878,41.712],[1.88,41.961],[1.853,42.023],[1.863,42.104]]}},{"type":"Feature","properties":{"class":"motorway"},"geometry":{"type":"LineString","coordinates":[[-2.896,42.702],[-2.79,42.739],[-2.777,42.796],[-2.651,42.886]]}},{"type":"Feature","properties":{"class":"motorway"},"geometry":{"type":"LineString","coordinates":[[1.504,43.662],[1.568,43.676],[1.604,43.743],[1.741,43.778],[1.852,43.857],[2.138,43.904]]}},{"type":"Feature","properties":{"class":"motorway"},"geometry":{"type":"LineString","coordinates":[[0.529,49.388],[0.339,49.34],[0.24,49.263]]}},{"type":"Feature","properties":{"class":"trunk"},"geometry":{"type":"LineString","coordinates":[[-1.786,48.104],[-1.734,48.163],[-1.686,48.184],[-1.61,48.145],[-1.605,48.118],[-1.625,48.098]]}},{"type":"Feature","properties":{"class":"motorway"},"geometry":{"type":"LineString","coordinates":[[1.022,49.345],[0.929,49.321],[0.699,49.385],[0.523,49.388]]}},{"type":"Feature","properties":{"class":"trunk"},"geometry":{"type":"LineString","coordinates":[[-1.491,47.303],[-1.497,47.219],[-1.528,47.162]]}},{"type":"Feature","properties":{"class":"motorway"},"geometry":{"type":"LineString","coordinates":[[3.456,43.647],[3.726,43.611],[3.922,43.609]]}},{"type":"Feature","properties":{"class":"motorway"},"geometry":{"type":"LineString","coordinates":[[-0.647,47.466],[-0.555,47.491],[-0.369,47.497],[-0.328,47.537],[-0.224,47.74],[-0.11,47.845],[-0.076,47.903],[0.133,47.984],[0.186,48.035]]}},{"type":"Feature","properties":{"class":"motorway"},"geometry":{"type":"LineString","coordinates":[[4.373,43.775],[4.516,43.906],[4.725,43.995],[4.794,44.07],[4.806,44.119]]}},{"type":"Feature","properties":{"class":"motorway"},"geometry":{"type":"LineString","coordinates":[[-0.495,44.863],[-0.359,44.906],[-0.268,44.892],[-0.235,44.98],[-0.188,45.008],[0.233,45.003],[0.465,45.065],[0.592,45.145],[0.742,45.134],[0.793,45.159],[0.901,45.159],[1.001,45.191],[1.091,45.142],[1.386,45.133],[1.484,45.177]]}},{"type":"Feature","properties":{"class":"motorway"},"geometry":{"type":"LineString","coordinates":[[3.17,45.801],[3.161,45.696],[3.273,45.538],[3.292,45.386],[3.233,45.304],[3.209,45.196],[3.128,45.108],[3.117,45.07],[3.139,45.01],[3.271,44.834],[3.285,44.759],[3.207,44.45],[3.171,44.401],[3.098,44.364],[3.097,44.273],[3.031,44.194],[3.03,44.099],[3.081,44.006],[3.263,43.915],[3.344,43.708],[3.456,43.647]]}},{"type":"Feature","properties":{"class":"motorway"},"geometry":{"type":"LineString","coordinates":[[3.456,43.647],[3.439,43.493],[3.325,43.393],[3.3,43.342]]}},{"type":"Feature","properties":{"class":"motorway"},"geometry":{"type":"LineString","coordinates":[[-0.336,47.521],[-0.29,47.487],[-0.196,47.469],[-0.164,47.41],[-0.068,47.371],[-0.036,47.29],[0.022,47.258],[0.228,47.27],[0.372,47.342],[0.55,47.297],[0.679,47.321]]}},{"type":"Feature","properties":{"class":"motorway"},"geometry":{"type":"LineString","coordinates":[[1.829,47.924],[1.771,47.915],[1.584,47.799],[1.358,47.626],[1.129,47.607],[0.73,47.444]]}},{"type":"Feature","properties":{"class":"motorway"},"geometry":{"type":"LineString","coordinates":[[0.706,47.308],[0.568,47.063],[0.537,46.923],[0.497,46.839],[0.496,46.774],[0.387,46.725],[0.319,46.598]]}},{"type":"Feature","properties":{"class":"motorway"},"geometry":{"type":"LineString","coordinates":[[0.319,46.598],[0.208,46.517],[-0.271,46.378],[-0.406,46.304],[-0.474,46.211],[-0.498,46.038],[-0.528,45.967]]}},{"type":"Feature","properties":{"class":"motorway"},"geometry":{"type":"LineString","coordinates":[[-1.705,47.264],[-1.51,47.298],[-1.179,47.431],[-0.644,47.466]]}},{"type":"Feature","properties":{"class":"motorway"},"geometry":{"type":"LineString","coordinates":[[5.377,45.6],[5.418,45.545],[5.447,45.403],[5.487,45.366],[5.614,45.324],[5.684,45.238],[5.712,45.161]]}},{"type":"Feature","properties":{"class":"motorway"},"geometry":{"type":"LineString","coordinates":[[6.041,44.467],[5.994,44.436]]}},{"type":"Feature","properties":{"class":"motorway"},"geometry":{"type":"LineString","coordinates":[[5.884,44.301],[5.916,44.203],[5.989,44.095]]}},{"type":"Feature","properties":{"class":"motorway"},"geometry":{"type":"LineString","coordinates":[[5.989,44.099],[5.904,44.006],[5.891,43.941],[5.802,43.817],[5.736,43.768],[5.718,43.725],[5.656,43.695],[5.671,43.635],[5.508,43.631],[5.503,43.566],[5.425,43.533],[5.413,43.47],[5.366,43.403]]}},{"type":"Feature","properties":{"class":"motorway"},"geometry":{"type":"LineString","coordinates":[[5.708,45.167],[5.926,45.326],[6.022,45.493]]}},{"type":"Feature","properties":{"class":"motorway"},"geometry":{"type":"LineString","coordinates":[[6.311,46.107],[6.326,46.16],[6.22,46.195],[6.145,46.188],[6.091,46.138]]}},{"type":"Feature","properties":{"class":"motorway"},"geometry":{"type":"LineString","coordinates":[[6.859,45.915],[6.66,45.944],[6.623,46.032],[6.571,46.07],[6.406,46.101],[6.304,46.097]]}},{"type":"Feature","properties":{"class":"motorway"},"geometry":{"type":"LineString","coordinates":[[6.818,46.508],[6.895,46.459],[6.986,46.268],[7.103,46.143]]}},{"type":"Feature","properties":{"class":"motorway"},"geometry":{"type":"LineString","coordinates":[[7.103,46.143],[7.187,46.149],[7.321,46.217],[7.579,46.284]]}},{"type":"Feature","properties":{"class":"motorway"},"geometry":{"type":"LineString","coordinates":[[5.902,45.617],[5.943,45.667],[5.956,45.767],[6.121,45.931],[6.132,45.996],[6.291,46.05],[6.311,46.107]]}},{"type":"Feature","properties":{"class":"motorway"},"geometry":{"type":"LineString","coordinates":[[9.483,47.022],[9.549,46.981],[9.566,46.928],[9.529,46.865],[9.445,46.809],[9.434,46.766]]}},{"type":"Feature","properties":{"class":"motorway"},"geometry":{"type":"LineString","coordinates":[[9.208,46.371],[9.2,46.324],[9.15,46.246]]}},{"type":"Feature","properties":{"class":"motorway"},"geometry":{"type":"LineString","coordinates":[[2.877,50.039],[2.991,50.07],[3.134,50.152]]}},{"type":"Feature","properties":{"class":"motorway"},"geometry":{"type":"LineString","coordinates":[[4.344,50.563],[4.362,50.533],[4.457,50.474]]}},{"type":"Feature","properties":{"class":"motorway"},"geometry":{"type":"LineString","coordinates":[[3.451,50.654],[3.402,50.652],[3.301,50.603],[3.11,50.618]]}},{"type":"Feature","properties":{"class":"motorway"},"geometry":{"type":"LineString","coordinates":[[7.408,46.938],[7.163,46.845],[7.105,46.772],[7.058,46.653],[6.932,46.596],[6.879,46.472]]}},{"type":"Feature","properties":{"class":"motorway"},"geometry":{"type":"LineString","coordinates":[[6.133,46.175],[6.125,46.231],[6.145,46.286],[6.294,46.465],[6.565,46.552],[6.655,46.553],[6.818,46.508]]}},{"type":"Feature","properties":{"class":"motorway"},"geometry":{"type":"LineString","coordinates":[[4.729,45.911],[4.824,45.897],[4.927,45.845],[5.044,45.873],[5.178,45.879],[5.315,45.954],[5.341,46.025],[5.329,46.087]]}},{"type":"Feature","properties":{"class":"motorway"},"geometry":{"type":"LineString","coordinates":[[6.092,46.143],[6.014,46.144],[5.898,46.066],[5.809,46.162],[5.742,46.178],[5.329,46.087]]}},{"type":"Feature","properties":{"class":"motorway"},"geometry":{"type":"LineString","coordinates":[[5.245,46.259],[5.308,46.25],[5.335,46.087]]}},{"type":"Feature","properties":{"class":"motorway"},"geometry":{"type":"LineString","coordinates":[[1.546,45.268],[1.928,45.367],[2.291,45.521],[2.423,45.608],[2.605,45.673],[2.998,45.97],[3.062,45.982],[3.122,45.959]]}},{"type":"Feature","properties":{"class":"motorway"},"geometry":{"type":"LineString","coordinates":[[5.257,46.263],[5.202,46.285],[4.975,46.286],[4.806,46.353]]}},{"type":"Feature","properties":{"class":"motorway"},"geometry":{"type":"LineString","coordinates":[[3.823,51.206],[4.191,51.26],[4.299,51.238],[4.385,51.195]]}},{"type":"Feature","properties":{"class":"motorway"},"geometry":{"type":"LineString","coordinates":[[4.293,50.883],[4.272,50.841],[4.31,50.785],[4.272,50.695],[4.313,50.665]]}},{"type":"Feature","properties":{"class":"motorway"},"geometry":{"type":"LineString","coordinates":[[4.316,50.666],[4.292,50.564]]}},{"type":"Feature","properties":{"class":"motorway"},"geometry":{"type":"LineString","coordinates":[[3.118,50.615],[3.149,50.739],[3.191,50.791],[3.386,50.856],[3.627,50.983],[3.719,51.0]]}},{"type":"Feature","properties":{"class":"motorway"},"geometry":{"type":"LineString","coordinates":[[3.716,50.997],[3.859,51.063],[3.987,51.065],[4.086,51.118],[4.399,51.189],[4.428,51.208],[4.44,51.247]]}},{"type":"Feature","properties":{"class":"motorway"},"geometry":{"type":"LineString","coordinates":[[4.304,50.666],[4.384,50.686],[4.472,50.812]]}},{"type":"Feature","properties":{"class":"motorway"},"geometry":{"type":"LineString","coordinates":[[3.134,50.146],[3.288,50.209],[3.435,50.332],[3.558,50.344],[3.64,50.436],[3.753,50.46]]}},{"type":"Feature","properties":{"class":"motorway"},"geometry":{"type":"LineString","coordinates":[[3.753,50.46],[3.91,50.492],[4.136,50.505]]}},{"type":"Feature","properties":{"class":"motorway"},"geometry":{"type":"LineString","coordinates":[[4.129,50.507],[4.346,50.571]]}},{"type":"Feature","properties":{"class":"motorway"},"geometry":{"type":"LineString","coordinates":[[3.479,50.654],[3.505,50.585],[3.709,50.507],[3.747,50.457]]}},{"type":"Feature","properties":{"class":"motorway"},"geometry":{"type":"LineString","coordinates":[[4.288,50.742],[4.237,50.736],[4.135,50.679],[3.845,50.684],[3.693,50.653],[3.451,50.654]]}},{"type":"Feature","properties":{"class":"motorway"},"geometry":{"type":"LineString","coordinates":[[2.214,49.928],[2.155,50.018],[1.875,50.099],[1.778,50.164]]}},{"type":"Feature","properties":{"class":"motorway"},"geometry":{"type":"LineString","coordinates":[[2.214,49.928],[2.19,49.524],[2.148,49.457]]}},{"type":"Feature","properties":{"class":"motorway"},"geometry":{"type":"LineString","coordinates":[[2.148,49.457],[2.074,49.332],[2.077,49.286],[2.116,49.23],[2.229,49.173],[2.275,49.086]]}},{"type":"Feature","properties":{"class":"motorway"},"geometry":{"type":"LineString","coordinates":[[2.822,48.207],[2.8,48.155],[2.706,48.074],[2.691,47.873],[2.742,47.702],[2.823,47.607]]}},{"type":"Feature","properties":{"class":"motorway"},"geometry":{"type":"LineString","coordinates":[[2.817,47.613],[2.88,47.572],[2.923,47.511],[2.935,47.355],[2.973,47.273]]}},{"type":"Feature","properties":{"class":"trunk"},"geometry":{"type":"LineString","coordinates":[[2.973,47.273],[3.089,47.101]]}},{"type":"Feature","properties":{"class":"motorway"},"geometry":{"type":"LineString","coordinates":[[3.089,47.101],[3.129,47.055],[3.241,46.998],[3.248,46.953]]}},{"type":"Feature","properties":{"class":"trunk"},"geometry":{"type":"LineString","coordinates":[[3.248,46.953],[3.142,46.869],[3.131,46.795],[3.178,46.709],[3.297,46.627],[3.314,46.571]]}},{"type":"Feature","properties":{"class":"motorway"},"geometry":{"type":"LineString","coordinates":[[4.192,48.211],[4.031,48.262]]}},{"type":"Feature","properties":{"class":"motorway"},"geometry":{"type":"LineString","coordinates":[[4.031,48.262],[3.861,48.279],[3.543,48.242],[3.349,48.259]]}},{"type":"Feature","properties":{"class":"motorway"},"geometry":{"type":"LineString","coordinates":[[3.349,48.259],[3.165,48.359],[2.968,48.407],[2.74,48.584],[2.57,48.597],[2.499,48.633]]}},{"type":"Feature","properties":{"class":"motorway"},"geometry":{"type":"MultiLineString","coordinates":[[[5.102,51.301],[4.962,51.3]],[[4.962,51.3],[4.935,51.296]]]}},{"type":"Feature","properties":{"class":"motorway"},"geometry":{"type":"LineString","coordinates":[[4.935,51.296],[4.837,51.283],[4.711,51.223],[4.57,51.22],[4.443,51.244]]}},{"type":"Feature","properties":{"class":"motorway"},"geometry":{"type":"LineString","coordinates":[[7.899,47.31],[7.743,47.304],[7.525,47.216],[7.496,47.164]]}},{"type":"Feature","properties":{"class":"motorway"},"geometry":{"type":"LineString","coordinates":[[6.858,49.139],[7.093,48.988],[7.114,48.948],[7.119,48.863],[7.141,48.833],[7.269,48.787]]}},{"type":"Feature","properties":{"class":"motorway"},"geometry":{"type":"LineString","coordinates":[[6.956,49.186],[6.971,49.293],[6.995,49.334],[6.949,49.456],[6.978,49.582]]}},{"type":"Feature","properties":{"class":"motorway"},"geometry":{"type":"LineString","coordinates":[[4.132,50.503],[4.227,50.476],[4.615,50.471],[4.85,50.533],[5.087,50.531],[5.257,50.592],[5.373,50.604],[5.475,50.668]]}},{"type":"Feature","properties":{"class":"motorway"},"geometry":{"type":"LineString","coordinates":[[4.622,50.863],[4.848,50.826],[5.031,50.71],[5.407,50.689],[5.471,50.662]]}},{"type":"Feature","properties":{"class":"motorway"},"geometry":{"type":"LineString","coordinates":[[5.563,50.699],[5.637,50.577],[5.72,50.495],[5.688,50.369],[5.776,50.211],[5.769,50.121]]}},{"type":"Feature","properties":{"class":"motorway"},"geometry":{"type":"LineString","coordinates":[[5.381,47.133],[5.373,47.175],[5.337,47.214],[5.141,47.302]]}},{"type":"Feature","properties":{"class":"motorway"},"geometry":{"type":"LineString","coordinates":[[4.567,47.237],[4.596,47.274],[4.64,47.292],[4.923,47.306],[5.03,47.338],[5.144,47.307]]}},{"type":"Feature","properties":{"class":"motorway"},"geometry":{"type":"LineString","coordinates":[[6.212,49.131],[6.726,49.165],[6.856,49.14]]}},{"type":"Feature","properties":{"class":"motorway"},"geometry":{"type":"LineString","coordinates":[[6.176,49.194],[5.873,49.196],[5.622,49.119],[5.415,49.092],[5.12,49.101],[4.885,49.084],[4.651,49.027],[4.402,49.025],[4.298,49.053]]}},{"type":"Feature","properties":{"class":"motorway"},"geometry":{"type":"LineString","coordinates":[[7.262,48.788],[7.62,48.78],[7.781,48.671]]}},{"type":"Feature","properties":{"class":"motorway"},"geometry":{"type":"LineString","coordinates":[[7.081,51.248],[7.076,51.306]]}},{"type":"Feature","properties":{"class":"motorway"},"geometry":{"type":"LineString","coordinates":[[6.817,50.916],[6.967,50.878],[7.043,50.926]]}},{"type":"Feature","properties":{"class":"motorway"},"geometry":{"type":"LineString","coordinates":[[7.764,50.459],[7.617,50.433],[7.442,50.344]]}},{"type":"Feature","properties":{"class":"motorway"},"geometry":{"type":"LineString","coordinates":[[7.04,50.923],[7.162,50.896],[7.192,50.867],[7.236,50.75],[7.315,50.682],[7.709,50.529],[7.766,50.455],[7.854,50.45],[8.075,50.382]]}},{"type":"Feature","properties":{"class":"motorway"},"geometry":{"type":"LineString","coordinates":[[8.092,50.406],[8.067,50.385],[8.185,50.358],[8.248,50.312],[8.269,50.18],[8.382,50.055]]}},{"type":"Feature","properties":{"class":"motorway"},"geometry":{"type":"LineString","coordinates":[[6.26,51.302],[6.366,51.265],[6.44,51.06],[6.505,50.996]]}},{"type":"Feature","properties":{"class":"motorway"},"geometry":{"type":"LineString","coordinates":[[6.505,50.996],[6.658,50.896]]}},{"type":"Feature","properties":{"class":"motorway"},"geometry":{"type":"LineString","coordinates":[[7.1,50.755],[7.112,50.801],[7.098,50.845],[7.045,50.924]]}},{"type":"Feature","properties":{"class":"motorway"},"geometry":{"type":"LineString","coordinates":[[7.032,50.591],[7.106,50.761]]}},{"type":"Feature","properties":{"class":"motorway"},"geometry":{"type":"LineString","coordinates":[[7.037,50.958],[7.273,50.931],[7.365,50.962],[7.48,50.973],[7.64,50.96],[7.846,50.982]]}},{"type":"Feature","properties":{"class":"motorway"},"geometry":{"type":"LineString","coordinates":[[6.984,51.019],[6.985,51.063],[6.883,51.302]]}},{"type":"Feature","properties":{"class":"motorway"},"geometry":{"type":"LineString","coordinates":[[6.856,49.141],[6.919,49.179],[7.056,49.218],[7.103,49.263],[7.32,49.356],[7.627,49.465],[7.984,49.49],[8.212,49.552],[8.641,49.561]]}},{"type":"Feature","properties":{"class":"motorway"},"geometry":{"type":"LineString","coordinates":[[5.471,50.662],[5.529,50.688],[5.646,50.698],[5.761,50.644],[5.845,50.639],[6.076,50.691],[6.166,50.752],[6.22,50.861]]}},{"type":"Feature","properties":{"class":"motorway"},"geometry":{"type":"LineString","coordinates":[[6.706,49.786],[6.825,49.725],[6.908,49.599],[6.993,49.585]]}},{"type":"Feature","properties":{"class":"motorway"},"geometry":{"type":"LineString","coordinates":[[6.993,49.585],[7.138,49.603],[7.265,49.534],[7.372,49.516],[7.429,49.459],[7.521,49.426]]}},{"type":"Feature","properties":{"class":"motorway"},"geometry":{"type":"LineString","coordinates":[[8.767,47.536],[8.886,47.579],[9.087,47.613],[9.156,47.655]]}},{"type":"Feature","properties":{"class":"motorway"},"geometry":{"type":"LineString","coordinates":[[8.717,50.656],[8.852,50.629]]}},{"type":"Feature","properties":{"class":"motorway"},"geometry":{"type":"LineString","coordinates":[[8.712,50.493],[8.779,50.481],[8.834,50.429],[8.948,50.397],[8.951,50.334],[9.019,50.251],[9.035,50.181]]}},{"type":"Feature","properties":{"class":"motorway"},"geometry":{"type":"LineString","coordinates":[[9.035,50.181],[9.042,50.094],[9.092,50.01]]}},{"type":"Feature","properties":{"class":"motorway"},"geometry":{"type":"LineString","coordinates":[[8.817,47.83],[8.793,47.837],[8.755,47.893],[8.658,47.913],[8.602,47.949],[8.594,47.99],[8.62,48.066],[8.568,48.163],[8.655,48.24],[8.635,48.316],[8.647,48.349],[8.861,48.513],[8.934,48.633],[8.99,48.687]]}},{"type":"Feature","properties":{"class":"motorway"},"geometry":{"type":"LineString","coordinates":[[9.842,49.758],[9.719,49.618],[9.614,49.565],[9.41,49.322],[9.364,49.298],[9.345,49.208],[9.291,49.147],[9.244,49.013],[9.03,48.797],[9.015,48.716],[8.988,48.689]]}},{"type":"Feature","properties":{"class":"motorway"},"geometry":{"type":"LineString","coordinates":[[9.817,49.761],[9.722,49.795],[9.607,49.776],[9.53,49.855],[9.295,49.983],[9.142,50.007],[9.008,49.999],[8.863,50.072],[8.646,50.06],[8.462,50.006]]}},{"type":"Feature","properties":{"class":"motorway"},"geometry":{"type":"LineString","coordinates":[[8.468,47.393],[8.433,47.348],[8.474,47.205]]}},{"type":"Feature","properties":{"class":"motorway"},"geometry":{"type":"LineString","coordinates":[[8.605,47.261],[8.556,47.216],[8.458,47.195],[8.434,47.164],[8.46,47.101],[8.582,47.057],[8.602,47.015]]}},{"type":"Feature","properties":{"class":"motorway"},"geometry":{"type":"LineString","coordinates":[[7.797,45.198],[7.825,45.236],[7.856,45.416]]}},{"type":"Feature","properties":{"class":"motorway"},"geometry":{"type":"LineString","coordinates":[[7.854,45.41],[7.867,45.468],[7.85,45.551],[7.768,45.644],[7.702,45.684],[7.681,45.741],[7.655,45.76],[7.572,45.772],[7.419,45.755],[7.191,45.702],[7.041,45.729],[6.997,45.79],[6.934,45.81]]}},{"type":"Feature","properties":{"class":"motorway"},"geometry":{"type":"LineString","coordinates":[[8.078,45.363],[7.973,45.38],[7.916,45.412],[7.854,45.41]]}},{"type":"Feature","properties":{"class":"motorway"},"geometry":{"type":"LineString","coordinates":[[9.448,47.034],[9.513,47.11],[9.472,47.188],[9.484,47.244],[9.681,47.458]]}},{"type":"Feature","properties":{"class":"motorway"},"geometry":{"type":"LineString","coordinates":[[8.446,45.903],[8.536,45.85],[8.526,45.755],[8.55,45.714],[8.592,45.7],[8.674,45.724],[8.791,45.689],[8.817,45.655],[9.11,45.527]]}},{"type":"Feature","properties":{"class":"motorway"},"geometry":{"type":"LineString","coordinates":[[8.537,45.726],[8.365,45.596],[8.403,45.559],[8.409,45.473],[8.473,45.374],[8.443,45.308],[8.444,45.258]]}},{"type":"Feature","properties":{"class":"motorway"},"geometry":{"type":"LineString","coordinates":[[8.733,44.453],[8.726,44.493],[8.663,44.585],[8.658,44.701],[8.591,44.789],[8.528,45.026],[8.463,45.097],[8.476,45.219],[8.424,45.271],[8.35,45.301],[8.193,45.318],[8.078,45.363]]}},{"type":"Feature","properties":{"class":"trunk"},"geometry":{"type":"LineString","coordinates":[[7.579,46.284],[7.956,46.313]]}},{"type":"Feature","properties":{"class":"trunk"},"geometry":{"type":"LineString","coordinates":[[2.389,48.615],[2.496,48.63]]}},{"type":"Feature","properties":{"class":"motorway"},"geometry":{"type":"LineString","coordinates":[[9.156,47.655],[9.045,47.74],[8.808,47.829]]}},{"type":"Feature","properties":{"class":"motorway"},"geometry":{"type":"LineString","coordinates":[[7.496,47.164],[7.46,46.991],[7.408,46.938]]}},{"type":"Feature","properties":{"class":"trunk"},"geometry":{"type":"LineString","coordinates":[[2.1,41.357],[2.058,41.376],[2.004,41.46]]}},{"type":"Feature","properties":{"class":"trunk"},"geometry":{"type":"LineString","coordinates":[[2.275,49.086],[2.355,49.001],[2.361,48.903]]}},{"type":"Feature","properties":{"class":"motorway"},"geometry":{"type":"LineString","coordinates":[[2.239,48.836],[2.331,48.813],[2.409,48.849]]}},{"type":"Feature","properties":{"class":"trunk"},"geometry":{"type":"LineString","coordinates":[[1.863,42.104],[1.827,42.259],[1.931,42.367]]}},{"type":"Feature","properties":{"class":"trunk"},"geometry":{"type":"LineString","coordinates":[[2.99,46.347],[3.086,46.428],[3.357,46.488]]}},{"type":"Feature","properties":{"class":"trunk"},"geometry":{"type":"LineString","coordinates":[[-3.957,43.325],[-3.939,43.221],[-3.898,43.168],[-3.894,43.097],[-3.85,43.003]]}},{"type":"Feature","properties":{"class":"trunk"},"geometry":{"type":"LineString","coordinates":[[-3.85,43.003],[-3.774,42.846],[-3.796,42.711],[-3.716,42.641],[-3.685,42.523],[-3.67,42.439],[-3.685,42.303]]}},{"type":"Feature","properties":{"class":"trunk"},"geometry":{"type":"LineString","coordinates":[[7.703,48.611],[7.834,48.586],[7.936,48.527]]}},{"type":"Feature","properties":{"class":"trunk"},"geometry":{"type":"LineString","coordinates":[[6.934,45.81],[6.894,45.84],[6.85,45.922]]}},{"type":"Feature","properties":{"class":"trunk"},"geometry":{"type":"LineString","coordinates":[[2.915,51.164],[2.933,51.203],[3.0,51.257],[3.193,51.324]]}},{"type":"Feature","properties":{"class":"trunk"},"geometry":{"type":"LineString","coordinates":[[3.296,51.322],[3.467,51.211],[3.823,51.206]]}},{"type":"Feature","properties":{"class":"motorway"},"geometry":{"type":"LineString","coordinates":[[4.42,51.231],[4.351,51.319]]}},{"type":"Feature","properties":{"class":"trunk"},"geometry":{"type":"LineString","coordinates":[[-4.453,48.444],[-4.406,48.382],[-4.285,48.373],[-4.071,48.222],[-4.047,48.127],[-4.104,48.035],[-4.091,48.003]]}},{"type":"Feature","properties":{"class":"trunk"},"geometry":{"type":"LineString","coordinates":[[-3.346,47.779],[-3.235,47.807],[-3.138,47.773],[-2.995,47.681],[-2.725,47.676],[-2.523,47.566],[-2.364,47.542],[-2.275,47.485],[-2.067,47.437],[-1.806,47.331],[-1.633,47.228]]}},{"type":"Feature","properties":{"class":"trunk"},"geometry":{"type":"LineString","coordinates":[[1.923,42.373],[1.934,42.44],[1.866,42.521],[1.789,42.563],[1.836,42.639],[1.831,42.692],[1.786,42.727],[1.677,42.759],[1.589,42.835],[1.592,42.863],[1.64,42.903],[1.621,42.987],[1.647,43.113]]}},{"type":"Feature","properties":{"class":"motorway"},"geometry":{"type":"LineString","coordinates":[[9.425,47.058],[9.483,47.022]]}},{"type":"Feature","properties":{"class":"trunk"},"geometry":{"type":"LineString","coordinates":[[6.982,51.013],[6.984,51.019]]}},{"type":"Feature","properties":{"class":"trunk"},"geometry":{"type":"LineString","coordinates":[[7.043,50.926],[7.045,50.95],[6.989,51.011]]}},{"type":"Feature","properties":{"class":"trunk"},"geometry":{"type":"LineString","coordinates":[[7.957,46.315],[7.998,46.293],[8.085,46.192],[8.275,46.185],[8.302,46.008],[8.439,45.975],[8.44,45.913],[8.459,45.898]]}},{"type":"Feature","properties":{"class":"trunk"},"geometry":{"type":"LineString","coordinates":[[7.91,47.313],[7.899,47.31]]}},{"type":"Feature","properties":{"class":"trunk"},"geometry":{"type":"LineString","coordinates":[[3.122,46.096],[3.205,46.121],[3.26,46.198],[3.293,46.304],[3.319,46.58]]}},{"type":"Feature","properties":{"class":"trunk"},"geometry":{"type":"LineString","coordinates":[[5.881,44.294],[5.938,44.402],[5.993,44.438]]}},{"type":"Feature","properties":{"class":"trunk"},"geometry":{"type":"LineString","coordinates":[[4.8,46.287],[4.661,46.405],[4.523,46.385],[4.362,46.439],[4.225,46.435],[4.112,46.475],[3.902,46.463],[3.646,46.538],[3.536,46.533],[3.361,46.49]]}},{"type":"Feature","properties":{"class":"trunk"},"geometry":{"type":"LineString","coordinates":[[5.704,45.151],[5.778,45.061],[5.8,44.887],[5.871,44.837],[6.019,44.791],[6.093,44.655],[6.087,44.588],[6.041,44.467]]}},{"type":"Feature","properties":{"class":"trunk"},"geometry":{"type":"LineString","coordinates":[[9.434,46.766],[9.445,46.633],[9.428,46.592],[9.375,46.561],[9.215,46.543],[9.173,46.519],[9.171,46.492],[9.215,46.42],[9.208,46.371]]}},{"type":"Feature","properties":{"class":"trunk"},"geometry":{"type":"LineString","coordinates":[[9.15,46.246],[9.114,46.215],[9.032,46.216]]}},{"type":"Feature","properties":{"class":"trunk"},"geometry":{"type":"LineString","coordinates":[[-1.783,48.111],[-1.907,48.164],[-2.1,48.209],[-2.209,48.288],[-2.259,48.291],[-2.559,48.462],[-2.773,48.488]]}},{"type":"Feature","properties":{"class":"trunk"},"geometry":{"type":"LineString","coordinates":[[-2.773,48.488],[-2.811,48.555],[-2.843,48.568],[-2.997,48.55],[-3.253,48.579],[-3.457,48.547],[-3.757,48.579],[-3.837,48.605],[-3.927,48.545],[-4.305,48.489],[-4.449,48.433]]}},{"type":"Feature","properties":{"class":"trunk"},"geometry":{"type":"LineString","coordinates":[[-4.449,48.433],[-4.601,48.396],[-4.757,48.384]]}},{"type":"Feature","properties":{"class":"trunk"},"geometry":{"type":"LineString","coordinates":[[-0.201,51.078],[-0.212,51.055],[-0.179,50.879]]}},{"type":"Feature","properties":{"class":"trunk"},"geometry":{"type":"LineString","coordinates":[[-0.175,50.873],[-0.335,50.834],[-0.68,50.854],[-0.782,50.826],[-0.854,50.857],[-1.002,50.857]]}},{"type":"Feature","properties":{"class":"trunk"},"geometry":{"type":"LineString","coordinates":[[-1.61,50.95],[-1.903,50.803]]}},{"type":"Feature","properties":{"class":"trunk"},"geometry":{"type":"LineString","coordinates":[[-1.903,50.803],[-1.933,50.72]]}},{"type":"Feature","properties":{"class":"trunk"},"geometry":{"type":"LineString","coordinates":[[-3.472,50.72],[-3.189,50.799]]}},{"type":"Feature","properties":{"class":"trunk"},"geometry":{"type":"LineString","coordinates":[[-3.189,50.799],[-3.119,50.87],[-3.031,50.919],[-2.944,50.948],[-2.776,50.951],[-2.643,51.031],[-2.477,51.032],[-2.279,51.089],[-2.041,51.128],[-1.951,51.166],[-1.583,51.215],[-1.381,51.191],[-1.21,51.198]]}},{"type":"Feature","properties":{"class":"motorway"},"geometry":{"type":"LineString","coordinates":[[0.479,51.31],[0.91,51.163]]}},{"type":"Feature","properties":{"class":"motorway"},"geometry":{"type":"LineString","coordinates":[[0.91,51.163],[1.014,51.105],[1.215,51.099],[1.265,51.109],[1.331,51.161]]}},{"type":"Feature","properties":{"class":"motorway"},"geometry":{"type":"LineString","coordinates":[[-4.298,41.183],[-4.315,41.401],[-4.599,41.474],[-4.721,41.596]]}},{"type":"Feature","properties":{"class":"motorway"},"geometry":{"type":"LineString","coordinates":[[-5.83,42.455],[-5.631,42.564]]}},{"type":"Feature","properties":{"class":"motorway"},"geometry":{"type":"LineString","coordinates":[[-5.542,42.566],[-5.561,42.499],[-5.551,42.46],[-5.587,42.361],[-5.576,42.215],[-5.639,42.054]]}},{"type":"Feature","properties":{"class":"motorway"},"geometry":{"type":"LineString","coordinates":[[-5.639,42.054],[-5.72,42.015],[-5.921,42.022]]}},{"type":"Feature","properties":{"class":"motorway"},"geometry":{"type":"LineString","coordinates":[[-5.016,41.509],[-5.06,41.535],[-5.103,41.594],[-5.162,41.624],[-5.196,41.691],[-5.328,41.809],[-5.401,41.846],[-5.452,41.905],[-5.623,41.992],[-5.638,42.058],[-5.716,42.128],[-5.761,42.232],[-5.801,42.27]]}},{"type":"Feature","properties":{"class":"motorway"},"geometry":{"type":"LineString","coordinates":[[-4.212,42.791],[-4.257,42.775],[-4.269,42.697],[-4.3,42.673],[-4.318,42.609],[-4.381,42.526],[-4.397,42.325],[-4.382,42.291],[-4.431,42.21],[-4.496,41.945]]}},{"type":"Feature","properties":{"class":"motorway"},"geometry":{"type":"LineString","coordinates":[[-4.046,43.347],[-4.079,43.295],[-4.053,43.165],[-4.107,43.006],[-4.14,42.97],[-4.101,42.892],[-4.217,42.791]]}},{"type":"Feature","properties":{"class":"motorway"},"geometry":{"type":"LineString","coordinates":[[2.246,41.543],[2.269,41.698],[2.228,41.77],[2.239,41.868],[2.219,41.912],[2.233,41.981],[2.221,42.015],[2.234,42.044],[2.205,42.109]]}},{"type":"Feature","properties":{"class":"motorway"},"geometry":{"type":"LineString","coordinates":[[2.731,41.773],[2.74,41.742],[2.697,41.654],[2.245,41.463],[2.162,41.364],[2.1,41.357]]}},{"type":"Feature","properties":{"class":"motorway"},"geometry":{"type":"LineString","coordinates":[[2.109,41.36],[1.967,41.276],[1.874,41.277],[1.768,41.249],[1.712,41.259],[1.657,41.223],[1.494,41.207]]}},{"type":"Feature","properties":{"class":"motorway"},"geometry":{"type":"LineString","coordinates":[[0.43,41.526],[0.597,41.646],[0.667,41.649],[0.73,41.611],[0.844,41.635],[1.06,41.618],[1.124,41.653],[1.2,41.649],[1.293,41.676],[1.385,41.607],[1.491,41.621],[1.57,41.587],[1.771,41.581],[1.922,41.492],[2.002,41.383],[2.044,41.365],[2.171,41.441],[2.18,41.477],[2.246,41.543]]}},{"type":"Feature","properties":{"class":"motorway"},"geometry":{"type":"LineString","coordinates":[[-0.2,44.543],[-0.237,44.45],[-0.21,44.343],[-0.218,44.282],[-0.381,43.977],[-0.357,43.873],[-0.262,43.726],[-0.311,43.424],[-0.354,43.384],[-0.364,43.311]]}},{"type":"Feature","properties":{"class":"motorway"},"geometry":{"type":"LineString","coordinates":[[-2.672,42.889],[-2.497,42.882],[-2.361,42.84],[-1.948,42.931],[-1.812,42.92],[-1.695,42.86]]}},{"type":"Feature","properties":{"class":"motorway"},"geometry":{"type":"LineString","coordinates":[[-1.695,42.86],[-1.698,42.814],[-1.627,42.796],[-1.611,42.745],[-1.641,42.693],[-1.622,42.645],[-1.635,42.569],[-1.689,42.511],[-1.727,42.388],[-1.725,42.302],[-1.685,42.191],[-1.738,42.119]]}},{"type":"Feature","properties":{"class":"motorway"},"geometry":{"type":"LineString","coordinates":[[0.73,47.439],[0.691,47.512],[0.43,47.65],[0.373,47.741],[0.31,47.795]]}},{"type":"Feature","properties":{"class":"motorway"},"geometry":{"type":"LineString","coordinates":[[0.889,49.327],[0.843,49.31],[0.736,49.199],[0.568,49.148],[0.487,49.093],[0.45,49.043],[0.442,48.952],[0.392,48.909],[0.363,48.819],[0.234,48.694],[0.192,48.629],[0.137,48.505],[0.125,48.391],[0.187,48.274],[0.173,48.184],[0.226,48.103],[0.236,48.026]]}},{"type":"Feature","properties":{"class":"motorway"},"geometry":{"type":"LineString","coordinates":[[-1.514,46.652],[-1.468,46.62],[-1.411,46.632],[-1.149,46.88],[-0.931,46.968],[-0.804,47.195],[-0.633,47.294],[-0.534,47.387],[-0.518,47.497]]}},{"type":"Feature","properties":{"class":"motorway"},"geometry":{"type":"LineString","coordinates":[[-1.066,46.538],[-0.887,46.463],[-0.729,46.43],[-0.68,46.395],[-0.516,46.438],[-0.421,46.417],[-0.315,46.358]]}},{"type":"Feature","properties":{"class":"motorway"},"geometry":{"type":"LineString","coordinates":[[5.708,45.164],[5.667,45.052],[5.647,44.877]]}},{"type":"Feature","properties":{"class":"motorway"},"geometry":{"type":"LineString","coordinates":[[5.556,45.346],[5.534,45.276],[5.314,45.1],[5.067,45.049]]}},{"type":"Feature","properties":{"class":"motorway"},"geometry":{"type":"LineString","coordinates":[[5.592,43.271],[5.431,43.316],[5.379,43.355],[5.36,43.398]]}},{"type":"Feature","properties":{"class":"motorway"},"geometry":{"type":"LineString","coordinates":[[5.36,43.398],[5.166,43.38],[4.967,43.443]]}},{"type":"Feature","properties":{"class":"motorway"},"geometry":{"type":"LineString","coordinates":[[5.55,43.486],[5.569,43.464],[5.572,43.389],[5.626,43.34],[5.584,43.272]]}},{"type":"Feature","properties":{"class":"motorway"},"geometry":{"type":"LineString","coordinates":[[8.024,44.721],[8.109,44.798],[8.217,44.86],[8.235,44.913]]}},{"type":"Feature","properties":{"class":"motorway"},"geometry":{"type":"LineString","coordinates":[[2.646,48.839],[2.676,48.903],[2.526,49.043]]}},{"type":"Feature","properties":{"class":"motorway"},"geometry":{"type":"LineString","coordinates":[[7.405,46.94],[7.205,46.968],[7.099,46.91],[7.014,46.901],[6.82,46.82],[6.762,46.781],[6.61,46.753],[6.575,46.728]]}},{"type":"Feature","properties":{"class":"motorway"},"geometry":{"type":"LineString","coordinates":[[6.575,46.728],[6.586,46.554]]}},{"type":"Feature","properties":{"class":"motorway"},"geometry":{"type":"LineString","coordinates":[[0.707,47.311],[0.987,47.285],[1.598,47.344],[2.04,47.273]]}},{"type":"Feature","properties":{"class":"motorway"},"geometry":{"type":"LineString","coordinates":[[6.209,48.627],[6.407,48.608]]}},{"type":"Feature","properties":{"class":"motorway"},"geometry":{"type":"LineString","coordinates":[[5.936,49.421],[5.996,49.349],[6.174,49.304]]}},{"type":"Feature","properties":{"class":"motorway"},"geometry":{"type":"LineString","coordinates":[[2.417,51.008],[2.465,50.978],[2.549,50.873],[2.687,50.768],[3.122,50.606]]}},{"type":"Feature","properties":{"class":"motorway"},"geometry":{"type":"LineString","coordinates":[[3.369,48.27],[3.208,48.148],[3.19,48.032]]}},{"type":"Feature","properties":{"class":"motorway"},"geometry":{"type":"LineString","coordinates":[[2.222,49.886],[1.912,49.826],[1.587,49.737],[1.473,49.758]]}},{"type":"Feature","properties":{"class":"motorway"},"geometry":{"type":"LineString","coordinates":[[2.21,49.849],[2.815,49.855]]}},{"type":"Feature","properties":{"class":"motorway"},"geometry":{"type":"LineString","coordinates":[[2.815,49.855],[3.269,49.853]]}},{"type":"Feature","properties":{"class":"motorway"},"geometry":{"type":"LineString","coordinates":[[6.115,48.7],[6.209,48.627]]}},{"type":"Feature","properties":{"class":"motorway"},"geometry":{"type":"LineString","coordinates":[[7.6,47.626],[7.678,47.543],[7.745,47.538],[7.828,47.561]]}},{"type":"Feature","properties":{"class":"motorway"},"geometry":{"type":"LineString","coordinates":[[6.126,49.537],[6.452,49.494],[6.531,49.453],[6.618,49.46],[6.752,49.338]]}},{"type":"Feature","properties":{"class":"motorway"},"geometry":{"type":"LineString","coordinates":[[5.376,47.136],[5.571,46.96],[5.603,46.892],[5.478,46.701],[5.333,46.552],[5.289,46.434],[5.289,46.321],[5.245,46.259]]}},{"type":"Feature","properties":{"class":"motorway"},"geometry":{"type":"LineString","coordinates":[[8.343,49.429],[8.299,49.424],[8.225,49.375],[8.124,49.196],[8.169,49.12],[8.253,49.072]]}},{"type":"Feature","properties":{"class":"motorway"},"geometry":{"type":"LineString","coordinates":[[7.738,48.688],[7.705,48.598],[7.674,48.571],[7.603,48.535],[7.502,48.522],[7.522,48.467],[7.464,48.401],[7.462,48.327]]}},{"type":"Feature","properties":{"class":"motorway"},"geometry":{"type":"LineString","coordinates":[[7.462,48.327],[7.385,48.256],[7.357,48.088]]}},{"type":"Feature","properties":{"class":"motorway"},"geometry":{"type":"LineString","coordinates":[[6.818,51.302],[6.814,51.295]]}},{"type":"Feature","properties":{"class":"motorway"},"geometry":{"type":"LineString","coordinates":[[6.923,51.166],[6.976,51.173],[7.056,51.236],[7.196,51.281]]}},{"type":"Feature","properties":{"class":"motorway"},"geometry":{"type":"LineString","coordinates":[[7.196,51.281],[7.272,51.3]]}},{"type":"Feature","properties":{"class":"motorway"},"geometry":{"type":"LineString","coordinates":[[6.192,51.203],[6.085,51.198],[5.852,51.138]]}},{"type":"Feature","properties":{"class":"motorway"},"geometry":{"type":"LineString","coordinates":[[6.108,51.024],[6.317,51.075],[6.596,51.1],[6.662,51.144],[6.676,51.215]]}},{"type":"Feature","properties":{"class":"motorway"},"geometry":{"type":"LineString","coordinates":[[6.682,51.215],[6.63,51.308]]}},{"type":"Feature","properties":{"class":"motorway"},"geometry":{"type":"LineString","coordinates":[[6.814,51.295],[6.774,51.221],[6.728,51.203]]}},{"type":"Feature","properties":{"class":"motorway"},"geometry":{"type":"LineString","coordinates":[[6.728,51.203],[6.192,51.203]]}},{"type":"Feature","properties":{"class":"motorway"},"geometry":{"type":"LineString","coordinates":[[8.343,50.053],[8.356,50.023],[8.333,49.96],[8.289,49.937],[8.196,49.946],[8.166,49.839],[8.123,49.778]]}},{"type":"Feature","properties":{"class":"motorway"},"geometry":{"type":"LineString","coordinates":[[8.123,49.778],[8.075,49.729],[8.042,49.65],[7.913,49.603],[7.783,49.49]]}},{"type":"Feature","properties":{"class":"motorway"},"geometry":{"type":"LineString","coordinates":[[8.407,50.076],[8.26,50.056],[8.191,50.017]]}},{"type":"Feature","properties":{"class":"motorway"},"geometry":{"type":"LineString","coordinates":[[8.866,47.809],[8.755,47.766]]}},{"type":"Feature","properties":{"class":"motorway"},"geometry":{"type":"LineString","coordinates":[[9.036,50.18],[8.962,50.158],[8.779,50.157],[8.575,50.121]]}},{"type":"Feature","properties":{"class":"motorway"},"geometry":{"type":"LineString","coordinates":[[7.684,44.975],[7.944,44.96],[8.069,44.905],[8.243,44.911]]}},{"type":"Feature","properties":{"class":"motorway"},"geometry":{"type":"LineString","coordinates":[[8.231,44.915],[8.384,44.903],[8.554,44.931]]}},{"type":"Feature","properties":{"class":"motorway"},"geometry":{"type":"LineString","coordinates":[[8.563,44.925],[8.618,44.934],[8.815,44.904],[9.004,44.994],[9.322,45.063],[9.756,45.051]]}},{"type":"Feature","properties":{"class":"motorway"},"geometry":{"type":"LineString","coordinates":[[9.749,45.053],[9.837,45.047]]}},{"type":"Feature","properties":{"class":"motorway"},"geometry":{"type":"LineString","coordinates":[[8.516,47.382],[8.565,47.289],[8.722,47.203],[8.803,47.191],[8.953,47.203],[9.07,47.126],[9.226,47.095],[9.346,47.105],[9.426,47.059]]}},{"type":"Feature","properties":{"class":"motorway"},"geometry":{"type":"LineString","coordinates":[[2.264,49.085],[2.101,49.031],[2.084,48.993],[2.094,48.938]]}},{"type":"Feature","properties":{"class":"motorway"},"geometry":{"type":"LineString","coordinates":[[7.764,44.639],[7.866,44.679]]}},{"type":"Feature","properties":{"class":"motorway"},"geometry":{"type":"LineString","coordinates":[[5.073,45.041],[4.902,44.931]]}},{"type":"Feature","properties":{"class":"motorway"},"geometry":{"type":"LineString","coordinates":[[-1.609,42.894],[-1.628,43.011],[-1.603,43.136],[-1.662,43.14],[-1.675,43.231],[-1.746,43.34]]}},{"type":"Feature","properties":{"class":"trunk"},"geometry":{"type":"LineString","coordinates":[[6.18,49.143],[6.212,49.131]]}},{"type":"Feature","properties":{"class":"trunk"},"geometry":{"type":"LineString","coordinates":[[6.228,49.137],[6.218,49.173],[6.176,49.194]]}},{"type":"Feature","properties":{"class":"motorway"},"geometry":{"type":"LineString","coordinates":[[-2.857,42.954],[-2.799,42.965],[-2.72,42.932],[-2.677,42.881]]}},{"type":"Feature","properties":{"class":"motorway"},"geometry":{"type":"LineString","coordinates":[[5.587,43.283],[5.617,43.228],[5.827,43.131],[6.027,43.133]]}},{"type":"Feature","properties":{"class":"motorway"},"geometry":{"type":"LineString","coordinates":[[6.017,43.136],[6.047,43.213],[6.32,43.334],[6.371,43.396]]}},{"type":"Feature","properties":{"class":"motorway"},"geometry":{"type":"LineString","coordinates":[[3.138,48.066],[2.868,48.035],[2.55,48.073],[2.453,48.105],[2.313,48.095],[2.12,48.116],[2.033,48.084],[1.953,48.08],[1.857,48.038]]}},{"type":"Feature","properties":{"class":"motorway"},"geometry":{"type":"LineString","coordinates":[[3.827,50.959],[3.835,51.059],[3.768,51.096],[3.761,51.126],[3.869,51.261],[3.86,51.279],[3.804,51.293],[3.793,51.41]]}},{"type":"Feature","properties":{"class":"motorway"},"geometry":{"type":"LineString","coordinates":[[2.727,41.777],[2.896,41.831],[3.037,41.839]]}},{"type":"Feature","properties":{"class":"motorway"},"geometry":{"type":"LineString","coordinates":[[9.708,50.478],[9.614,50.461],[9.416,50.288],[9.316,50.232],[9.036,50.18]]}},{"type":"Feature","properties":{"class":"motorway"},"geometry":{"type":"LineString","coordinates":[[-1.698,42.062],[-1.828,41.871],[-1.9,41.867]]}},{"type":"Feature","properties":{"class":"motorway"},"geometry":{"type":"LineString","coordinates":[[0.696,47.357],[0.73,47.439]]}},{"type":"Feature","properties":{"class":"motorway"},"geometry":{"type":"LineString","coordinates":[[9.814,45.658],[9.682,45.675],[9.344,45.572]]}},{"type":"Feature","properties":{"class":"motorway"},"geometry":{"type":"LineString","coordinates":[[1.549,45.267],[1.477,45.171],[1.52,45.028],[1.497,44.878],[1.556,44.712],[1.503,44.611],[1.49,44.536],[1.486,44.329],[1.541,44.244],[1.541,44.206],[1.315,43.945]]}},{"type":"Feature","properties":{"class":"motorway"},"geometry":{"type":"LineString","coordinates":[[0.696,47.357],[0.677,47.327],[0.707,47.311]]}},{"type":"Feature","properties":{"class":"motorway"},"geometry":{"type":"LineString","coordinates":[[4.91,47.065],[4.759,47.104],[4.659,47.211],[4.567,47.24]]}},{"type":"Feature","properties":{"class":"motorway"},"geometry":{"type":"LineString","coordinates":[[1.276,49.657],[1.425,49.724],[1.697,49.996],[1.766,50.086],[1.776,50.202]]}},{"type":"Feature","properties":{"class":"motorway"},"geometry":{"type":"LineString","coordinates":[[9.344,45.572],[9.044,45.518]]}},{"type":"Feature","properties":{"class":"motorway"},"geometry":{"type":"LineString","coordinates":[[2.246,41.543],[2.362,41.616],[2.475,41.653],[2.55,41.708],[2.702,41.741],[2.748,41.842]]}},{"type":"Feature","properties":{"class":"motorway"},"geometry":{"type":"LineString","coordinates":[[1.267,45.834],[1.482,45.597],[1.572,45.358],[1.549,45.267]]}},{"type":"Feature","properties":{"class":"motorway"},"geometry":{"type":"LineString","coordinates":[[2.924,50.313],[2.986,50.375],[3.026,50.492],[3.118,50.615]]}},{"type":"Feature","properties":{"class":"motorway"},"geometry":{"type":"LineString","coordinates":[[9.494,51.254],[9.399,51.287],[9.085,51.456]]}},{"type":"Feature","properties":{"class":"trunk"},"geometry":{"type":"LineString","coordinates":[[-4.091,48.003],[-4.022,47.962],[-3.816,47.894],[-3.582,47.891],[-3.444,47.794],[-3.346,47.779]]}},{"type":"Feature","properties":{"class":"motorway"},"geometry":{"type":"LineString","coordinates":[[5.769,50.121],[5.743,50.066],[5.624,49.953],[5.493,49.88]]}},{"type":"Feature","properties":{"class":"motorway"},"geometry":{"type":"LineString","coordinates":[[5.243,50.995],[4.961,50.955],[4.809,50.966],[4.622,50.863]]}},{"type":"Feature","properties":{"class":"motorway"},"geometry":{"type":"LineString","coordinates":[[8.589,46.938],[8.627,46.879],[8.639,46.746],[8.596,46.668]]}},{"type":"Feature","properties":{"class":"motorway"},"geometry":{"type":"LineString","coordinates":[[8.596,46.668],[8.575,46.623],[8.594,46.566]]}},{"type":"Feature","properties":{"class":"motorway"},"geometry":{"type":"LineString","coordinates":[[8.602,47.015],[8.605,46.915]]}},{"type":"Feature","properties":{"class":"motorway"},"geometry":{"type":"LineString","coordinates":[[8.253,49.072],[8.398,48.996]]}}]}